id,name,address,business_hours,has_non_brush,has_high_pressure,has_self_wash,has_unlimited_water,description,latitude,longitude,営業時間_月,営業時間_火,営業時間_水,営業時間_木,営業時間_金,営業時間_土,営業時間_日
0141717b-0499-4c42-99e9-8635f69ad760,セルフ洗車場 あらいぐーま,〒770-8021 徳島県徳島市雑賀町西開８１−１,不明,FALSE,TRUE,FALSE,FALSE,愛車をピカピカにするなら、徳島市の「セルフ洗車場 あらいぐーま」はどうだ？  利用者からは「車を大事にしたい人にオススメします。 私は普段丹精込めて手洗いしてて、コイン洗車は洗車キズが嫌でまずやりません。 でもどうしても時間がないときは、こちらの洗車機...」なんて声も上がっているみたいだぜ。（星5評価）  **門型自動洗車機**があるから、手軽にサッと汚れを落としたい時にも便利だ。  営業時間は不明だ。時間内に行ってくれよな！  ちなみに、超高圧ジェットシステム搭載機あり。 という情報もあるみたいだ。  週末の洗車はここに決まりだな！,34.0703652,134.5549537,0721,0721,0921,0721,0721,0721,0721
0290882c-d0cd-4be1-ada7-17cb16f20a09,洗車のジャバ 朝日町浜街道店,香川県高松市朝日町5-2-8,不明,TRUE,TRUE,FALSE,FALSE,おっ、ここは高松市にある「洗車のジャバ 朝日町浜街道店」だな！  利用者からは「全自動ノーブラシ洗車機が3台あります。 （一部稼働してないこともありますが…） コーティングをしてるのでノーブラシはありがたい☺️ 時々使っています。」なんて声も上がっているみたいだぜ。（星4評価）  なんと**ノンブラシ洗車機**があるんだ！ブラシ傷を気にせず、コーティング車も安心して洗えるぜ。  営業時間は不明だ。時間内に行ってくれよな！  愛車が綺麗になると気分も上がるよな！ぜひ行ってみてくれ！,34.3470281,134.0723786,0000,0000,0000,0000,0000,0000,0000
04285479-2b30-4a85-b8c7-1709adbb43dd,ENEOS 産業道路宇宿SS,〒890-0073 鹿児島県鹿児島市宇宿２丁目２８−２８,24時間,FALSE,TRUE,TRUE,FALSE,おっ、ここは鹿児島市にある「ENEOS 産業道路宇宿SS」だな！  利用者からは「週末になるとよくガソリンを満タンにしに行きます。20ℓ以上給油をすると同じ敷地内にあるセブンイレブンで引き換えられる当たり券が当たったりします。基本的には、緑茶...」なんて声も上がっているみたいだぜ。（星4評価）  **高圧洗浄機完備**のセルフ洗車スペースがあるから、自分の手で納得いくまで綺麗にできるな。 **門型自動洗車機**があるから、手軽にサッと汚れを落としたい時にも便利だ。  しかも**24時間営業**！深夜のドライブついでや、早朝の空いている時間にゆっくり洗車できるのは最高だよな。  ちなみに、手洗い洗車スペースあり、24時間営業。 という情報もあるみたいだ。  近くに行ったら寄ってみてくれよな！,31.5437072,130.5356032,0000,0000,0000,0000,0000,0000,0000
0678f89f-cb67-4f9f-955f-6ed97b058d4a,コイン洗車場HAKU,岡山県倉敷市連島2-9,不明,FALSE,TRUE,TRUE,FALSE,おっ、ここは倉敷市にある「コイン洗車場HAKU」だな！  利用者からは「清潔でサービスも充実、洗車や拭きあげスペースも広く、少し遠いですがよく利用させてもらっています。 ときに先日(4/13)に利用した際に、青いボトルのカーシャンプ...」なんて声も上がっているみたいだぜ。（星5評価）  **高圧洗浄機完備**のセルフ洗車スペースがあるから、自分の手で納得いくまで綺麗にできるな。 **門型自動洗車機**があるから、手軽にサッと汚れを落としたい時にも便利だ。  営業時間は不明だ。時間内に行ってくれよな！  ちなみに、管理が行き届いた綺麗な洗車場。 という情報もあるみたいだ。  近くに行ったら寄ってみてくれよな！,34.5494205,133.7374496,0722,0722,0722,0722,0722,0722,0722
0684f591-e316-4452-885e-e589dca08fb2,飯田アクセル松尾洗車場,長野県飯田市松尾明７４１０−２ ※付近,不明,TRUE,TRUE,FALSE,FALSE,愛車をピカピカにするなら、飯田市の「飯田アクセル松尾洗車場」はどうだ？  利用者からは「近所のガソリンスタンドの洗車機はいつも順番待ちなので、 穴場的なここをよく利用してます ノンブラシ洗車機を使いますが たまに使えない時もあるのが残念」なんて声も上がっているみたいだぜ。（星4評価）  なんと**ノンブラシ洗車機**があるんだ！ブラシ傷を気にせず、コーティング車も安心して洗えるぜ。  営業時間は不明だ。時間内に行ってくれよな！  ちなみに、ノンブラシ洗車機設置。 という情報もあるみたいだ。  洗車ライフを楽しんでくれよな！,35.5179896,137.8222039,0622,0622,0622,0622,0622,0622,0622
06b4487a-280e-49cb-8dd4-1f9132b9aa47,D-Wash コジマ×ビックカメラ熊谷店,〒360-0816 埼玉県熊谷市石原４８４,不明,FALSE,TRUE,FALSE,FALSE,噂の洗車場、「D-Wash コジマ×ビックカメラ熊谷店」を紹介するぜ！場所は熊谷市だ。  利用者からは「本庄の方と比べてしまうと多少見劣りしてしまうかもしれないが、問題なく使えます。 エアブロー、高圧洗浄機、掃除機、バケツと装備は充実しており手ぶら洗車とは行かない...」なんて声も上がっているみたいだぜ。（星4評価）  基本的な設備はしっかり揃っているみたいだぜ。  営業時間は不明だ。時間内に行ってくれよな！  愛車が綺麗になると気分も上がるよな！ぜひ行ってみてくれ！,36.1471963,139.3889796,06002300,06002300,06002300,06002300,06002300,06002300,0623
0752c08f-13ad-4f74-bea0-982f72f2d9d3,サービスプラザ【コインランドリー・洗車場】,〒479-0839 愛知県常滑市多屋町３丁目３−１,不明,FALSE,TRUE,TRUE,FALSE,おっ、ここは常滑市にある「りんくうコイン洗車場」だな！  利用者からは「こちらの施設は洗車場にコインランドリーが併設されています。洗車場は24時間営業で、コインランドリーは深夜には閉まります。 洗車場は、門型洗車機2台と高圧洗浄スプ...」なんて声も上がっているみたいだぜ。（星4評価）  **高圧洗浄機完備**のセルフ洗車スペースがあるから、自分の手で納得いくまで綺麗にできるな。  営業時間は不明だ。時間内に行ってくれよな！  ちなみに、全国リサーチ追加 (首都圏・東海編) という情報もあるみたいだ。  洗車ライフを楽しんでくれよな！,34.8866414,136.8323482,05302400,05302400,05302400,05302400,05302400,05302400,05302359
07c7bb88-1174-4702-8de8-df1de22959eb,ドルフィンパーク洗車場,東京都世田谷区北烏山5-23-19,7:00 - 21:00,TRUE,TRUE,TRUE,FALSE,愛車をピカピカにするなら、世田谷区の「ドルフィンパーク洗車場」はどうだ？  なんと**ノンブラシ洗車機**があるんだ！ブラシ傷を気にせず、コーティング車も安心して洗えるぜ。 **高圧洗浄機完備**のセルフ洗車スペースがあるから、自分の手で納得いくまで綺麗にできるな。 掃除機もあるから、車内のゴミも一掃できるぞ。  営業時間は7:00 - 21:00だ。時間内に行ってくれよな！  ちなみに、ノンブラシ洗車機完備。拭き上げスペース10台分。 という情報もあるみたいだ。  週末の洗車はここに決まりだな！,35.6760662,139.5870529,0721,0721,0721,0721,0721,0721,0721
0a019f4d-2a82-43b8-8019-25a73404396e,洗車のジャバ 西成岸里店,大阪府大阪市西成区岸里2-6,不明,TRUE,TRUE,FALSE,FALSE,愛車をピカピカにするなら、大阪市の「洗車のジャバ 西成岸里店」はどうだ？  利用者からは「セルフ洗車機を使っていますが、とても便利で空間も広くて、洗車店は高架橋の下にあるので、日焼けや雨の心配はありません。セルフ洗車機を使えば、洗って隣の広い乾燥所に...」なんて声も上がっているみたいだぜ。（星5評価）  なんと**ノンブラシ洗車機**があるんだ！ブラシ傷を気にせず、コーティング車も安心して洗えるぜ。  営業時間は不明だ。時間内に行ってくれよな！  洗車ライフを楽しんでくれよな！,34.6334308,135.4954394,0524,0524,0524,0524,0524,0524,0524
0a4dcf8b-4634-41e6-a0cc-b1641aa91266,Whitepit 尼崎玉江橋店,兵庫県尼崎市東難波町5-31-8,24時間,FALSE,TRUE,TRUE,FALSE,愛車をピカピカにするなら、尼崎市の「Whitepit 尼崎玉江橋店」はどうだ？  **高圧洗浄機完備**のセルフ洗車スペースがあるから、自分の手で納得いくまで綺麗にできるな。 掃除機もあるから、車内のゴミも一掃できるぞ。  しかも**24時間営業**！深夜のドライブついでや、早朝の空いている時間にゆっくり洗車できるのは最高だよな。  ちなみに、時間制セルフ洗車場。高圧洗浄機、純水器など設備充実。 という情報もあるみたいだ。  愛車が綺麗になると気分も上がるよな！ぜひ行ってみてくれ！,34.7212017,135.4183729,0000,0000,0000,0000,0000,0000,0000
0b55e990-276d-4d6b-8122-b16504a7896f,ドルフィンパーク,東京都世田谷区北烏山5丁目23-19,07:00-21:00,TRUE,TRUE,TRUE,FALSE,"愛車をピカピカにするなら、世田谷区の「ドルフィンパーク」はどうだ？  利用者からは「7年8月時点、基本コースは700円、水洗いなら600円。両替機無く、構内の自販機はだいたい釣り銭切れなので、小銭を用意していくことをお勧めします。星５の理由は、...」なんて声も上がっているみたいだぜ。（星5評価）  なんと**ノンブラシ洗車機**があるんだ！ブラシ傷を気にせず、コーティング車も安心して洗えるぜ。 **高圧洗浄機完備**のセルフ洗車スペースがあるから、自分の手で納得いくまで綺麗にできるな。 掃除機もあるから、車内のゴミも一掃できるぞ。  営業時間は07:00-21:00だ。時間内に行ってくれよな！  ちなみに、料金例: 水洗い 500円〜, ノンブラシ 600円〜 という情報もあるみたいだ。  近くに行ったら寄ってみてくれよな！",35.6825912,139.5864966,0721,0721,0721,0721,0721,0721,0721
0bec1220-4182-461c-93e4-fa66a7d03d1d,洗車ランド晴丘,〒488-0044 愛知県尾張旭市南本地ケ原町３丁目１２９,不明,FALSE,TRUE,TRUE,FALSE,愛車をピカピカにするなら、尾張旭市の「洗車ランド晴丘」はどうだ？  利用者からは「ゆで作（うどん屋）さん経営の洗車場。 機械はショートガンタイプで水洗車で400円 コインランドリーも併設で中には両替機も設置されているので 小銭が必要な時には非...」なんて声も上がっているみたいだぜ。（星4評価）  **高圧洗浄機完備**のセルフ洗車スペースがあるから、自分の手で納得いくまで綺麗にできるな。  営業時間は不明だ。時間内に行ってくれよな！  ちなみに、全国リサーチ追加 (首都圏・東海編) という情報もあるみたいだ。  近くに行ったら寄ってみてくれよな！,35.2145832,137.0382573,05002215,05002215,05002215,05002215,05002215,05002215,05002215
0de49d26-f929-4c3c-95f3-7b4276f48df5,洗車のジャバ 堺鳳店,大阪府堺市西区上593-1,不明,TRUE,TRUE,FALSE,FALSE,噂の洗車場、「洗車のジャバ 堺鳳店」を紹介するぜ！場所は堺市だ。  利用者からは「2025.7.27 13:30到着 炎天下なのでガラガラ 洗車機新500円玉使えず ジュースの自動販売機は新硬貨つかえるのと新札使えないのありました 途中ストッ...」なんて声も上がっているみたいだぜ。（星5評価）  なんと**ノンブラシ洗車機**があるんだ！ブラシ傷を気にせず、コーティング車も安心して洗えるぜ。  営業時間は不明だ。時間内に行ってくれよな！  近くに行ったら寄ってみてくれよな！,34.5247023,135.4619648,06002300,06002300,06002300,06002300,06002300,06002300,06002300
0e05fc4f-c095-49d4-99c2-98f14936f6f7,洗車スペース・サード岩切,宮城県仙台市宮城野区岩切（詳細要確認）,不明,TRUE,TRUE,FALSE,FALSE,噂の洗車場、「洗車スペース・サード岩切」を紹介するぜ！場所は仙台市だ。  利用者からは「古い車なので、スポンジブラシ洗車を試しました。 慢性疼痛持ちのオバチャンは、若い頃は洗車大好きだったけど、肩上がらないから中々ハードル高くて。 車検が近いので、...」なんて声も上がっているみたいだぜ。（星4評価）  なんと**ノンブラシ洗車機**があるんだ！ブラシ傷を気にせず、コーティング車も安心して洗えるぜ。  営業時間は不明だ。時間内に行ってくれよな！  ちなみに、水圧のみのノンブラシ洗車。 という情報もあるみたいだ。  週末の洗車はここに決まりだな！,38.2996062,140.9453658,06002200,06002200,06002200,06002200,06002200,06002200,06002200
0e812675-8c84-4b0d-b742-b337783d32a7,カーピカランド米津,愛知県西尾市,不明,FALSE,TRUE,TRUE,FALSE,おっ、ここは西尾市にある「カーピカランド米津」だな！  利用者からは「コイン洗車場。 あまり混雑しないので、時間をかけて洗車したい人には特にオススメ！ 住宅地のなかにポツンとある。 シャワーが4台ぶん・掃除機が1〜2台ぶん・拭き上...」なんて声も上がっているみたいだぜ。（星5評価）  **高圧洗浄機完備**のセルフ洗車スペースがあるから、自分の手で納得いくまで綺麗にできるな。  営業時間は不明だ。時間内に行ってくれよな！  ちなみに、全国リサーチ追加 (首都圏・東海編) という情報もあるみたいだ。  近くに行ったら寄ってみてくれよな！,34.8619053,137.0618775,該当なし,該当なし,該当なし,該当なし,該当なし,該当なし,該当なし
0efd086f-c31d-44e4-8700-178aba9bb6be,Whitepit 高松鶴市店,香川県高松市鶴市町62-1,不明,FALSE,TRUE,FALSE,FALSE,噂の洗車場、「Whitepit 高松鶴市店」を紹介するぜ！場所は高松市だ。  利用者からは「ホワイトピットさんは、充実した設備が整った24時間営業の手洗い洗車場です。場内は常に清潔に管理されていて気持ちよく利用できます。洗車好きにはぜひ訪れてほしい場所...」なんて声も上がっているみたいだぜ。（星4評価）  基本的な設備はしっかり揃っているみたいだぜ。  営業時間は不明だ。時間内に行ってくれよな！  ちなみに、時間制セルフ洗車 という情報もあるみたいだ。  洗車ライフを楽しんでくれよな！,34.325155,134.0037088,00000000,00000000,00000000,00000000,00000000,00000000,00000000
0f294bb2-8f1a-4b0d-8a2f-2c88d9cbdcae,洗車のジャバ 吹田インター中環青葉丘店,大阪府茨木市下穂積2-10-6,不明,TRUE,TRUE,FALSE,FALSE,おっ、ここは茨木市にある「洗車のジャバ 吹田インター中環青葉丘店」だな！  利用者からは「ガラスコーティング車専用の洗車機あります。洗車場も最近少なくてなかなか珍しいですね。茨木のイオンシネマに月1.2回は来ますのでそのついでに今後お世話になるとおも...」なんて声も上がっているみたいだぜ。（星4評価）  なんと**ノンブラシ洗車機**があるんだ！ブラシ傷を気にせず、コーティング車も安心して洗えるぜ。  営業時間は不明だ。時間内に行ってくれよな！  週末の洗車はここに決まりだな！,34.8086176,135.5525091,05002359,05002359,05002359,05002359,05002359,05002359,05002359
0fb23802-c71a-4645-be02-a35605585a82,SPLASH 'N' GO! 前橋50号店,〒379-2154 群馬県前橋市天川大島町２丁目4−１５,不明,FALSE,TRUE,FALSE,FALSE,噂の洗車場、「SPLASH 'N' GO! 前橋50号店」を紹介するぜ！場所は前橋市だ。  利用者からは「本日、初めて30プリウスにて利用しました！ 店員さんもすごく丁寧で感じの良い方達です。 せっかく店員さんに拭き取りをしていただいたのですが、 店員さんに感じ悪く...」なんて声も上がっているみたいだぜ。（星5評価）  **門型自動洗車機**があるから、手軽にサッと汚れを落としたい時にも便利だ。  営業時間は不明だ。時間内に行ってくれよな！  ちなみに、トンネル型連続洗車機 という情報もあるみたいだ。  近くに行ったら寄ってみてくれよな！,36.3894669,139.0634134,08002000,08002000,定休日,08002000,08002000,定休日,08002000
0fd682d9-1feb-4f11-b443-26358a35d132,洗車CLUB 川崎店,神奈川県川崎市高津区東野川2-29-11,不明,FALSE,TRUE,FALSE,FALSE,愛車をピカピカにするなら、川崎市の「洗車クラブ 第一洗車場」はどうだ？  利用者からは「硝子屋の稼働時間であれば 脚立・バケツ貸出サービスあり。 両替機も使える。 構内に洗車用品の自販機あり。  2025年1月現在 門型洗車機と洗車用品販売機のキャ...」なんて声も上がっているみたいだぜ。（星5評価）  基本的な設備はしっかり揃っているみたいだぜ。  営業時間は不明だ。時間内に行ってくれよな！  ちなみに、初心者・女性に優しい広々スペース という情報もあるみたいだ。  愛車が綺麗になると気分も上がるよな！ぜひ行ってみてくれ！,35.5673305,139.6150466,05002300,05002300,05002300,05002300,05002300,05002300,05002300
0fd7231f-823f-4b8d-829d-b27b7028eb49,WASH GARAGE 南区内田橋店,〒457-0862 愛知県名古屋市南区内田橋１丁目３５−２７ B棟,予約制,FALSE,TRUE,TRUE,FALSE,噂の洗車場、「WASH GARAGE 南区内田橋店」を紹介するぜ！場所は名古屋市だ。  利用者からは「プライベート洗車場で洗車してみました。 高圧洗浄機など洗車グッズもあり、泡洗車ができました。コイン洗車だと時間に追われて焦りますが、こちらはゆっくりと自分のペー...」なんて声も上がっているみたいだぜ。（星5評価）  **高圧洗浄機完備**のセルフ洗車スペースがあるから、自分の手で納得いくまで綺麗にできるな。 掃除機もあるから、車内のゴミも一掃できるぞ。  営業時間は予約制だ。時間内に行ってくれよな！  ちなみに、2024年12月オープン。完全予約制ガレージ、純水器完備、手ぶら洗車可能。 という情報もあるみたいだ。  洗車ライフを楽しんでくれよな！,35.1144674,136.908295,05002200,05002200,05002200,05002200,05002200,05002200,05002200
0ffd0d01-de56-48cf-94f5-338044c0e22f,カーピカランド中町,大阪府泉佐野市中町4-2-6665-1,不明,FALSE,TRUE,FALSE,FALSE,噂の洗車場、「カーピカランド中町」を紹介するぜ！場所は泉佐野市だ。  利用者からは「つぼい商店さんが、運営管理している洗車場です。 もう、20年以上利用しています。過去に洗車カードにトラブルがありました、その時、直ぐに親切丁寧な対応を、してくれ...」なんて声も上がっているみたいだぜ。（星4評価）  **門型自動洗車機**があるから、手軽にサッと汚れを落としたい時にも便利だ。  営業時間は不明だ。時間内に行ってくれよな！  週末の洗車はここに決まりだな！,34.4001776,135.3125873,06002200,06002200,06002200,06002200,06002200,06002200,06002200
1088c22d-bd28-4a6d-8d91-6aa510c7f093,洗車のジャバ 朝日町浜街道店,〒760-0065 香川県高松市朝日町５丁目２−８,24時間,TRUE,TRUE,FALSE,FALSE,噂の洗車場、「洗車のジャバ 朝日町浜街道店」を紹介するぜ！場所は高松市だ。  なんと**ノンブラシ洗車機**があるんだ！ブラシ傷を気にせず、コーティング車も安心して洗えるぜ。  しかも**24時間営業**！深夜のドライブついでや、早朝の空いている時間にゆっくり洗車できるのは最高だよな。  ちなみに、24時間営業。ノンブラシ洗車機あり。 という情報もあるみたいだ。  近くに行ったら寄ってみてくれよな！,34.3525499,134.0651235,00000000,00000000,00000000,00000000,00000000,00000000,00000000
11840af0-5f9c-4a20-8f39-c6fd670cb1c0,洗車のジャバ 東大阪店,大阪府東大阪市鷹殿町21-36,不明,TRUE,TRUE,FALSE,FALSE,愛車をピカピカにするなら、東大阪市の「洗車のジャバ 東大阪店」はどうだ？  利用者からは「ブラシ洗車で車に傷をつけたくない 利用者が殆どだと思います。 高圧水で洗浄の後送風乾燥ですが 水滴が残るので拭き取り用の タオルの貸出あります。 ただ窓ガラス用...」なんて声も上がっているみたいだぜ。（星4評価）  なんと**ノンブラシ洗車機**があるんだ！ブラシ傷を気にせず、コーティング車も安心して洗えるぜ。  営業時間は不明だ。時間内に行ってくれよな！  洗車ライフを楽しんでくれよな！,34.6707853,135.6347663,05002359,05002359,05002359,05002359,05002359,05002359,05002359
11a81281-e662-4b00-82b0-c767af3acdab,コイン洗車城北,〒420-0805 静岡県静岡市葵区城北２丁目４−５３,不明,FALSE,TRUE,TRUE,FALSE,噂の洗車場、「コイン洗車城北」を紹介するぜ！場所は静岡市だ。  利用者からは「バケツの貸出があり、蛇口の水道も無料で使えるのは魅力的。 設備は少々古く、お釣りが出ない仕様なので、事前に必要な小銭を準備しておくのは必須。 近隣にコイン洗車場...」なんて声も上がっているみたいだぜ。（星4評価）  **高圧洗浄機完備**のセルフ洗車スペースがあるから、自分の手で納得いくまで綺麗にできるな。  営業時間は不明だ。時間内に行ってくれよな！  ちなみに、全国リサーチ追加 (首都圏・東海編) という情報もあるみたいだ。  愛車が綺麗になると気分も上がるよな！ぜひ行ってみてくれ！,35.002696,138.3950758,05002100,05002100,05002100,05002100,05002100,05002100,05002100
126afe2e-8f13-42af-b265-62af21d0a160,洗車のジャバ 姫路東インター店,兵庫県姫路市四郷町見野820-1,不明,TRUE,TRUE,FALSE,FALSE,おっ、ここは姫路市にある「洗車のジャバ 姫路東インター店」だな！  利用者からは「大分少なくなってしまったスプレーガンのある洗車場です。バイク乗りには必須の洗車場です。」なんて声も上がっているみたいだぜ。（星5評価）  なんと**ノンブラシ洗車機**があるんだ！ブラシ傷を気にせず、コーティング車も安心して洗えるぜ。  営業時間は不明だ。時間内に行ってくれよな！  近くに行ったら寄ってみてくれよな！,34.8055486,134.7282346,05002359,05002359,05002359,05002359,05002359,05002359,05002359
12d2936f-83d5-4704-a0f5-2b3b49f6abb5,カーピカランド レインボー 猿海道店,愛知県一宮市猿海道1-2-1,不明,FALSE,TRUE,FALSE,FALSE,愛車をピカピカにするなら、一宮市の「カーピカランド レインボー 猿海道店」はどうだ？  **門型自動洗車機**があるから、手軽にサッと汚れを落としたい時にも便利だ。  営業時間は不明だ。時間内に行ってくれよな！  週末の洗車はここに決まりだな！,35.2864354,136.8162214,00000000,00000000,00000000,00000000,00000000,00000000,00000000
138b7de1-cb95-4698-9785-e5232383ebcd,ウオッシュザウルス豊里,大阪府大阪市東淀川区大道南1-5,不明,FALSE,TRUE,TRUE,FALSE,愛車をピカピカにするなら、大阪市の「ウオッシュザウルス豊里」はどうだ？  **高圧洗浄機完備**のセルフ洗車スペースがあるから、自分の手で納得いくまで綺麗にできるな。  営業時間は不明だ。時間内に行ってくれよな！  ちなみに、全国リサーチ追加 (大阪編) という情報もあるみたいだ。  愛車が綺麗になると気分も上がるよな！ぜひ行ってみてくれ！,34.7407147,135.5489304,06002300,06002300,06002300,06002300,06002300,06002300,06002300
1506414a-869e-42c0-98cf-b4ebbda97399,ワニの洗車場,東京都板橋区赤塚新町2-27-8,08:00-21:00,TRUE,TRUE,TRUE,FALSE,"愛車をピカピカにするなら、板橋区の「ワニの洗車場」はどうだ？  利用者からは「今回は手洗い洗車で利用しました。周辺のコイン洗車場に比べて綺麗ですし、利用客のマナーも悪くないように思います。 脚立も常設されており、ホースも吊り下げ式なので取...」なんて声も上がっているみたいだぜ。（星4評価）  なんと**ノンブラシ洗車機**があるんだ！ブラシ傷を気にせず、コーティング車も安心して洗えるぜ。 **高圧洗浄機完備**のセルフ洗車スペースがあるから、自分の手で納得いくまで綺麗にできるな。 掃除機もあるから、車内のゴミも一掃できるぞ。  営業時間は08:00-21:00だ。時間内に行ってくれよな！  ちなみに、料金例: 機械洗車 600円〜, 手洗い 500円〜 という情報もあるみたいだ。  愛車が綺麗になると気分も上がるよな！ぜひ行ってみてくれ！",35.7725727,139.6385143,08002100,08002100,08002100,08002100,08002100,定休日,08002100
1534acf9-43ce-440e-9f4d-fee308acfcfd,洗車クラブ 第二洗車場,〒216-0042 神奈川県川崎市宮前区南野川２２１３,不明,FALSE,TRUE,FALSE,FALSE,愛車をピカピカにするなら、川崎市の「洗車クラブ 第二洗車場」はどうだ？  利用者からは「地方でしか利用した事ありませんでしたが、拭き上げよう等のスポンジやタオルは自前か有料なので忘れずに。」なんて声も上がっているみたいだぜ。（星4評価）  基本的な設備はしっかり揃っているみたいだぜ。  営業時間は不明だ。時間内に行ってくれよな！  ちなみに、初心者・女性に優しい広々スペース という情報もあるみたいだ。  近くに行ったら寄ってみてくれよな！,35.568531,139.6120411,05002200,05002200,05002200,05002200,05002200,05002200,05002200
155f0e83-4f4f-432e-a57f-c6500304aa6b,洗車のジャバ ブルーランド店,大阪府羽曳野市西浦1268,不明,TRUE,TRUE,FALSE,FALSE,おっ、ここは羽曳野市にある「洗車のジャバ ブルーランド店」だな！  利用者からは「古いですが、拭き上げスペースが広いので助かります。」なんて声も上がっているみたいだぜ。（星5評価）  なんと**ノンブラシ洗車機**があるんだ！ブラシ傷を気にせず、コーティング車も安心して洗えるぜ。  営業時間は不明だ。時間内に行ってくれよな！  洗車ライフを楽しんでくれよな！,34.537155,135.6091812,05002359,05002359,05002359,05002359,05002359,05002359,05002359
1586a347-4b87-4c6d-be0e-6b8fdd080d5e,洗車のジャバ 2号線大蔵谷店,兵庫県明石市大蔵八幡町6-43,6:00 - 22:00,TRUE,TRUE,TRUE,FALSE,おっ、ここは明石市にある「洗車のジャバ 2号線大蔵谷店」だな！  利用者からは「初めてこちらで朝から利用しましたが、なんと、手洗い場にて、持参したバケツ、スプレーガンで料金払わず洗車している黒いクラウンがいました。高級車乗ってても、水を泥棒...」なんて声も上がっているみたいだぜ。（星4評価）  なんと**ノンブラシ洗車機**があるんだ！ブラシ傷を気にせず、コーティング車も安心して洗えるぜ。 **高圧洗浄機完備**のセルフ洗車スペースがあるから、自分の手で納得いくまで綺麗にできるな。 掃除機もあるから、車内のゴミも一掃できるぞ。  営業時間は6:00 - 22:00だ。時間内に行ってくれよな！  ちなみに、ノーブラシ洗車機2台。スタッフ駐在なし。 という情報もあるみたいだ。  愛車が綺麗になると気分も上がるよな！ぜひ行ってみてくれ！,34.6456542,135.0101977,06002200,06002200,06002200,06002200,06002200,06002200,06002200
16194cef-b1f9-478b-8bf6-bda760825e1c,超純水洗車アライグマ,静岡県富士市柚木169-1,不明,TRUE,TRUE,FALSE,FALSE,おっ、ここは富士市にある「超純水洗車アライグマ」だな！  利用者からは「超純水で拭き取り要らずに興味を持ちました。 まだ開店したばかりなのか、スタッフの方が居てくれるので、初めてでも安心でした。 ミラーを畳むのを忘れていましたが、ス...」なんて声も上がっているみたいだぜ。（星4評価）  なんと**ノンブラシ洗車機**があるんだ！ブラシ傷を気にせず、コーティング車も安心して洗えるぜ。  営業時間は不明だ。時間内に行ってくれよな！  ちなみに、ゲート式超純水ノンブラシ洗車機。 という情報もあるみたいだ。  週末の洗車はここに決まりだな！,35.1594178,138.6401409,07002100,07002100,07002100,07002100,07002100,07002100,07002100
18f98a47-09e5-4a47-b437-45dd05aebe45,洗車CLUB 鷺沼台,〒275-0015 千葉県習志野市鷺沼台,不明,FALSE,TRUE,TRUE,FALSE,噂の洗車場、「洗車CLUB 鷺沼台」を紹介するぜ！場所は習志野市だ。  **高圧洗浄機完備**のセルフ洗車スペースがあるから、自分の手で納得いくまで綺麗にできるな。  営業時間は不明だ。時間内に行ってくれよな！  ちなみに、全国リサーチ追加 (首都圏・東海編) という情報もあるみたいだ。  週末の洗車はここに決まりだな！,35.6819749,140.0354506,閉業,閉業,閉業,閉業,閉業,閉業,閉業
1b62f11c-b972-4a5d-9c2b-3d283a4f362d,コイン洗車場 (山田南),大阪府吹田市山田南38,不明,FALSE,TRUE,TRUE,FALSE,おっ、ここは吹田市にある「コイン洗車場 (山田南)」だな！  利用者からは「1台しか洗えません。 300円で６分間。時間を止めることは出来ないので投入後　何もしなくても６分後に終わります。　水ボタン　洗剤ボタン　あります。 目の前に自販...」なんて声も上がっているみたいだぜ。（星4評価）  **高圧洗浄機完備**のセルフ洗車スペースがあるから、自分の手で納得いくまで綺麗にできるな。  営業時間は不明だ。時間内に行ってくれよな！  ちなみに、ユーザー指摘による追加 (無名) という情報もあるみたいだ。  洗車ライフを楽しんでくれよな！,34.7904254,135.5357362,08002030,08002030,08002030,08002030,08002030,08002030,08002030
1d55b10a-e587-470c-9be3-84e4d64a3633,クリーンアップ洗車場,〒047-0036 北海道小樽市長橋４丁目５,不明,TRUE,TRUE,FALSE,FALSE,愛車をピカピカにするなら、小樽市の「クリーンアップ洗車場」はどうだ？  利用者からは「家近くの洗車場が無くなって、ココまで来ます。 洗車パワーが選べるのが良い😽 週末混んでいて、あき待ちの時どの様に並んで待てば良いのか、案内板があると安心出来る...」なんて声も上がっているみたいだぜ。（星4評価）  なんと**ノンブラシ洗車機**があるんだ！ブラシ傷を気にせず、コーティング車も安心して洗えるぜ。  営業時間は不明だ。時間内に行ってくれよな！  ちなみに、ノンブラシ洗車機あり。 という情報もあるみたいだ。  愛車が綺麗になると気分も上がるよな！ぜひ行ってみてくれ！,43.1902372,140.994172,00000000,00000000,00000000,00000000,00000000,00000000,00000000
1f8db65f-2cf0-4b37-9762-067420edcbb8,埼玉スポーツセンター 洗車場,埼玉県所沢市南永井1116,24時間,TRUE,TRUE,FALSE,FALSE,噂の洗車場、「埼玉スポーツセンター 洗車場」を紹介するぜ！場所は所沢市だ。  利用者からは「最高の洗車場です！ 安くて24hなので、よく深夜にふらっと洗車しに行ってます。 自動洗車機は100円でブローコースが選べ、めんどくさい最初の拭き取りがかなり楽に...」なんて声も上がっているみたいだぜ。（星5評価）  なんと**ノンブラシ洗車機**があるんだ！ブラシ傷を気にせず、コーティング車も安心して洗えるぜ。  しかも**24時間営業**！深夜のドライブついでや、早朝の空いている時間にゆっくり洗車できるのは最高だよな。  ちなみに、24時間営業。ノンブラシ機あり。 という情報もあるみたいだ。  近くに行ったら寄ってみてくれよな！,35.8237288,139.5314644,00000000,00000000,00000000,00000000,00000000,00000000,00000000
2371fc75-c398-4191-8386-ae8dfdebed8a,Ai Wash Park ウェーブ洗車場,〒006-0001 北海道札幌市手稲区西宮の沢１条２丁目３,24時間,TRUE,TRUE,TRUE,FALSE,愛車をピカピカにするなら、札幌市の「Ai Wash Park ウェーブ洗車場」はどうだ？  利用者からは「夜中しか空いてない！昼間は全く空いてない。 カードは1000円か2000円のみ。洗車は300円～700円まで。お釣りはでない。洗車機は撥水で1000円。24時間...」なんて声も上がっているみたいだぜ。（星5評価）  なんと**ノンブラシ洗車機**があるんだ！ブラシ傷を気にせず、コーティング車も安心して洗えるぜ。 **高圧洗浄機完備**のセルフ洗車スペースがあるから、自分の手で納得いくまで綺麗にできるな。 掃除機もあるから、車内のゴミも一掃できるぞ。  しかも**24時間営業**！深夜のドライブついでや、早朝の空いている時間にゆっくり洗車できるのは最高だよな。  ちなみに、超ハイテクノンブラシ洗車機あり。24時間営業。 という情報もあるみたいだ。  愛車が綺麗になると気分も上がるよな！ぜひ行ってみてくれ！,43.1322358,141.2417533,00000000,00000000,00000000,00000000,00000000,00000000,00000000
23d6abb2-37aa-402b-afd5-b6a7f223dde6,洗車のジャバ 八王子滝山店,東京都八王子市滝山町2-616,不明,TRUE,TRUE,FALSE,FALSE,おっ、ここは八王子市にある「洗車のジャバ 八王子滝山店」だな！  利用者からは「場所は滝山街道沿い、スーパーアルプス本部の近くにあります。  ノーブラシ洗車機がやりたくて、何度か利用しています。  料金は標準コース(洗剤2回→撥水剤→高圧水...」なんて声も上がっているみたいだぜ。（星4評価）  なんと**ノンブラシ洗車機**があるんだ！ブラシ傷を気にせず、コーティング車も安心して洗えるぜ。  営業時間は不明だ。時間内に行ってくれよな！  近くに行ったら寄ってみてくれよな！,35.6907431,139.3372109,05002359,05002359,05002359,05002359,05002359,05002359,05002359
23d6c6e4-cfd7-47a8-80c1-cfa7414228b6,洗車倶楽部 ぴっかりDO,〒066-0078 北海道千歳市勇舞７丁目５−１１,不明,TRUE,TRUE,FALSE,FALSE,愛車をピカピカにするなら、千歳市の「洗車倶楽部 ぴっかりDO」はどうだ？  なんと**ノンブラシ洗車機**があるんだ！ブラシ傷を気にせず、コーティング車も安心して洗えるぜ。  営業時間は不明だ。時間内に行ってくれよな！  ちなみに、ノンブラシ洗車機あり。 という情報もあるみたいだ。  近くに行ったら寄ってみてくれよな！,42.8212867,141.6510125,08002000,08002000,08002000,08002000,08002000,08002000,08002000
24c4635c-7cec-45d2-b3b0-ecfee0ba1e55,オートクリーンプラザ奥戸,東京都葛飾区奥戸8-26-7,24時間,FALSE,TRUE,TRUE,FALSE,噂の洗車場、「オートクリーンプラザ奥戸」を紹介するぜ！場所は葛飾区だ。  利用者からは「新しい機械が導入され、キャッシュレス決済各種に対応するようになりました。ですが、メニュー全般が200円ほど値上げされています。  新しい機械はウォーターガンが小...」なんて声も上がっているみたいだぜ。（星4評価）  **高圧洗浄機完備**のセルフ洗車スペースがあるから、自分の手で納得いくまで綺麗にできるな。 掃除機もあるから、車内のゴミも一掃できるぞ。  しかも**24時間営業**！深夜のドライブついでや、早朝の空いている時間にゆっくり洗車できるのは最高だよな。  ちなみに、料金例: スプレー 400円〜 という情報もあるみたいだ。  近くに行ったら寄ってみてくれよな！,35.7391661,139.8641659,00000000,00000000,00000000,00000000,00000000,00000000,00000000
260d0d6c-12c6-415a-b15a-a8ed559d4e04,アイウォッシュパーク西堀,埼玉県新座市西堀2-10,不明,TRUE,TRUE,FALSE,FALSE,噂の洗車場、「アイウォッシュパーク西堀」を紹介するぜ！場所は新座市だ。  利用者からは「24時間営業で料金も安いです!」なんて声も上がっているみたいだぜ。（星5評価）  なんと**ノンブラシ洗車機**があるんだ！ブラシ傷を気にせず、コーティング車も安心して洗えるぜ。  営業時間は不明だ。時間内に行ってくれよな！  ちなみに、ノンブラシ洗車機あり。 という情報もあるみたいだ。  近くに行ったら寄ってみてくれよな！,35.7731385,139.5378642,00000000,00000000,00000000,00000000,00000000,00000000,00000000
26fd39c0-3450-4ad8-91dc-28ccb71646a3,カーピカランド問屋町店,栃木県宇都宮市石井町3431-27,不明,FALSE,TRUE,FALSE,FALSE,おっ、ここは宇都宮市にある「カーピカランド問屋町店」だな！  利用者からは「いつ行っても綺麗だし、機械の不具合などなく気持ち良く洗車出来ます。たまたま、閉店間近までいた事あり、暗いところで車を拭き上げていたら、ご高齢のおばあちゃんが「い...」なんて声も上がっているみたいだぜ。（星5評価）  **門型自動洗車機**があるから、手軽にサッと汚れを落としたい時にも便利だ。  営業時間は不明だ。時間内に行ってくれよな！  週末の洗車はここに決まりだな！,36.5363525,139.9216664,06002230,06002230,06002230,06002230,06002230,06002230,06002230
279a5192-d1c7-4b0f-83c8-d720dbb46e15,セルフ24 長泉なめり店,〒411-0933 静岡県駿東郡長泉町納米里１０−１,不明,FALSE,TRUE,TRUE,FALSE,おっ、ここは駿東郡にある「セルフ24 長泉なめり店」だな！  利用者からは「当方3年程度のお付き合いでしたが 非常に接客が素晴らしく 細やかな提案で優先順位の付け方が非常に上手く ちょこちょこ甘えさせていただきました。  特に素晴らしい...」なんて声も上がっているみたいだぜ。（星5評価）  **高圧洗浄機完備**のセルフ洗車スペースがあるから、自分の手で納得いくまで綺麗にできるな。  営業時間は不明だ。時間内に行ってくれよな！  ちなみに、全国リサーチ追加 (首都圏・東海編) という情報もあるみたいだ。  洗車ライフを楽しんでくれよな！,35.1461748,138.8963598,00000000,00000000,00000000,00000000,00000000,00000000,00000000
27ca82cd-866a-45a9-8ee3-ee8733b839ef,スーパーウォッシュ東新潟,〒950-0026 新潟県新潟市東区小金町１丁目１−３,要確認,TRUE,TRUE,FALSE,FALSE,おっ、ここは新潟市にある「スーパーウォッシュ東新潟」だな！  利用者からは「洗車機の高圧ノズルが時々詰まっていて時々治っていますね！左右の機械ともにです。 ノンブラシでやる際は致命的なので可能な限り点検と修繕をしていただきたいです。 施...」なんて声も上がっているみたいだぜ。（星4評価）  なんと**ノンブラシ洗車機**があるんだ！ブラシ傷を気にせず、コーティング車も安心して洗えるぜ。  営業時間は要確認だ。時間内に行ってくれよな！  ちなみに、門型洗車機でノンブラシモード選択可能。 という情報もあるみたいだ。  愛車が綺麗になると気分も上がるよな！ぜひ行ってみてくれ！,37.9185345,139.069444,10002200,10002200,10002200,10002200,10002200,10001900,09001900
2ab7bd7e-94df-4a3e-a8f9-56660fc65aab,ビッグトップ武里店,〒339-0012 埼玉県さいたま市岩槻区増長２２７,不明,FALSE,TRUE,TRUE,FALSE,おっ、ここはさいたま市にある「ビッグトップ武里店」だな！  利用者からは「いつも洗車機が空いていて、料金もまあまあのお値段なので結構利用しています。」なんて声も上がっているみたいだぜ。（星4評価）  **高圧洗浄機完備**のセルフ洗車スペースがあるから、自分の手で納得いくまで綺麗にできるな。  営業時間は不明だ。時間内に行ってくれよな！  ちなみに、全国リサーチ追加 (首都圏・東海編) という情報もあるみたいだ。  週末の洗車はここに決まりだな！,35.9474639,139.7409333,05002300,05002300,05002300,05002300,05002300,05002300,05002300
2b35f4b2-c2ae-43ce-9022-1462e8ae12e0,カーピカランド木川,大阪府大阪市淀川区木川西4-2-8,不明,FALSE,TRUE,TRUE,FALSE,おっ、ここは大阪市にある「カーピカランド木川」だな！  利用者からは「門型の洗車機が新しくなっていました。現金のみのようです。洗えない車種として外国車、他とありますので、確認が必要です。 スプレー洗車機は洗い場が広くて洗いやすいで...」なんて声も上がっているみたいだぜ。（星5評価）  **高圧洗浄機完備**のセルフ洗車スペースがあるから、自分の手で納得いくまで綺麗にできるな。  営業時間は不明だ。時間内に行ってくれよな！  ちなみに、全国リサーチ追加 (大阪編) という情報もあるみたいだ。  近くに行ったら寄ってみてくれよな！,34.7268606,135.4871559,閉業,閉業,閉業,閉業,閉業,閉業,閉業
2b76c0a1-667a-4432-ad4b-69a5d4b1d429,三菱商事エネルギー セルフ里仁（WASH PARK）,〒680-0935 鳥取県鳥取市里仁１０９−１,不明,FALSE,TRUE,FALSE,FALSE,おっ、ここは鳥取市にある「三菱商事エネルギー セルフ里仁（WASH PARK）」だな！  利用者からは「山陰自動車道(鳥取西IC)から鳥取市へ入る最短位置にある広くて便利、1リッター当たりのガソリン価格が市内でも1~2位を争う低価格ですから利用者は多いセルフのGS...」なんて声も上がっているみたいだぜ。（星4評価）  **門型自動洗車機**があるから、手軽にサッと汚れを落としたい時にも便利だ。  営業時間は不明だ。時間内に行ってくれよな！  ちなみに、比較的新しい洗車場。 という情報もあるみたいだ。  近くに行ったら寄ってみてくれよな！,35.5015038,134.1898206,07002300,07002300,07002300,07002300,07002300,07002300,07002300
2bafbffa-e592-4464-9e4b-cf2ea6aa98c9,洗車スペースINASA,〒904-2156 沖縄県沖縄市美里仲原町３０−１,不明,FALSE,TRUE,TRUE,FALSE,噂の洗車場、「洗車スペースINASA」を紹介するぜ！場所は沖縄市だ。  利用者からは「いつもお世話になっております。 オーナーさんが車好きなので、昔の車の話でよく盛り上がります。車について全然知らない方にも、親切に何でも教えてくれますよ。」なんて声も上がっているみたいだぜ。（星5評価）  **高圧洗浄機完備**のセルフ洗車スペースがあるから、自分の手で納得いくまで綺麗にできるな。 **門型自動洗車機**があるから、手軽にサッと汚れを落としたい時にも便利だ。  営業時間は不明だ。時間内に行ってくれよな！  ちなみに、セルフ手洗いおよびドライブスルー洗車。 という情報もあるみたいだ。  週末の洗車はここに決まりだな！,26.3464604,127.826686,08001900,08001900,08001900,08001900,08001900,08001900,08001900
2c1c3139-4371-43a2-a610-a44af3fafdab,洗車のジャバ 住之江店,大阪府大阪市住之江区平林南2-4-31,不明,FALSE,TRUE,TRUE,FALSE,おっ、ここは大阪市にある「洗車のジャバ 住之江店」だな！  **高圧洗浄機完備**のセルフ洗車スペースがあるから、自分の手で納得いくまで綺麗にできるな。  営業時間は不明だ。時間内に行ってくれよな！  ちなみに、全国リサーチ追加 (大阪編) という情報もあるみたいだ。  週末の洗車はここに決まりだな！,34.6081345,135.4583352,05002359,05002359,05002359,05002359,05002359,05002359,05002359
2c6a10f2-a58e-45a0-a3c0-22996fbc9cce,ENEOS 西原センターSS,沖縄県中頭郡西原町（詳細要確認）,不明,FALSE,TRUE,TRUE,FALSE,おっ、ここは中頭郡にある「ENEOS 西原センターSS」だな！  利用者からは「仕上げのスペースが広く 使いやすいです」なんて声も上がっているみたいだぜ。（星4評価）  **高圧洗浄機完備**のセルフ洗車スペースがあるから、自分の手で納得いくまで綺麗にできるな。  営業時間は不明だ。時間内に行ってくれよな！  ちなみに、セルフ手洗い洗車機（コイン式）、高圧スプレーあり。 という情報もあるみたいだ。  週末の洗車はここに決まりだな！,26.2228349,127.7588392,閉業,閉業,閉業,閉業,閉業,閉業,閉業
2db9cfa5-e900-4e87-85a2-e1e14aac30d8,Whitepit 南区東海通店,愛知県名古屋市南区戸部下1-2-1,不明,FALSE,TRUE,FALSE,FALSE,噂の洗車場、「Whitepit 南区東海通店」を紹介するぜ！場所は名古屋市だ。  基本的な設備はしっかり揃っているみたいだぜ。  営業時間は不明だ。時間内に行ってくれよな！  ちなみに、時間制セルフ洗車 という情報もあるみたいだ。  愛車が綺麗になると気分も上がるよな！ぜひ行ってみてくれ！,35.10755,136.9190601,00000000,00000000,00000000,00000000,00000000,00000000,00000000
2ddce9db-8cc6-4419-ab23-ad2fe83ea1f2,ヤマウチセルフ多肥,〒761-8076 香川県高松市多肥上町字立石１８７０−３,要確認,TRUE,TRUE,FALSE,FALSE,愛車をピカピカにするなら、高松市の「ヤマウチセルフ多肥」はどうだ？  利用者からは「近くの他のENEOSは171〜3/Lとかでしたが、口コミで地域最安値ということを信じていくと本当に安い！ 基本的に他のガソリンスタンドさんが163〜7円/Lを掲...」なんて声も上がっているみたいだぜ。（星4評価）  なんと**ノンブラシ洗車機**があるんだ！ブラシ傷を気にせず、コーティング車も安心して洗えるぜ。  営業時間は要確認だ。時間内に行ってくれよな！  ちなみに、2025年6月よりノーブラシ洗車導入。 という情報もあるみたいだ。  洗車ライフを楽しんでくれよな！,34.2895699,134.0556095,06002359,06002359,06002359,06002359,06002359,06002359,06002359
2e2dbfe4-176f-4235-aaa1-5d18ea2356a2,シャワーストリートSP（コインランドリーBOX和戸）,〒400-0812 山梨県甲府市和戸町５５４−１ ※付近,24時間,TRUE,TRUE,FALSE,FALSE,噂の洗車場、「シャワーストリートSP（コインランドリーBOX和戸）」を紹介するぜ！場所は甲府市だ。  利用者からは「自宅が近いので便利に利用させてもらっています。 ジェット洗車機が６機と自動タイプが１機、クリーナーが４機あり他にコインランドリーも併設しています。 両替機は無く...」なんて声も上がっているみたいだぜ。（星4評価）  なんと**ノンブラシ洗車機**があるんだ！ブラシ傷を気にせず、コーティング車も安心して洗えるぜ。  しかも**24時間営業**！深夜のドライブついでや、早朝の空いている時間にゆっくり洗車できるのは最高だよな。  ちなみに、甲府市でノンブラシ洗車機設置の代表店。 という情報もあるみたいだ。  近くに行ったら寄ってみてくれよな！,35.6501017,138.6013084,00000000,00000000,00000000,00000000,00000000,00000000,00000000
2e5f8c3b-5416-4f99-b126-6e34ef778e38,洗車のジャバ 東大阪南店,大阪府東大阪市南上小阪10-60,不明,TRUE,TRUE,FALSE,FALSE,おっ、ここは東大阪市にある「洗車のジャバ 東大阪南店」だな！  利用者からは「全自動ノーブラシ洗車機JAVA 東大阪南店さん。  時々…利用させていただいてます。  夕方頃まではスタッフさんがいるのでタオルやガラス拭き等を貸してもらいます...」なんて声も上がっているみたいだぜ。（星4評価）  なんと**ノンブラシ洗車機**があるんだ！ブラシ傷を気にせず、コーティング車も安心して洗えるぜ。  営業時間は不明だ。時間内に行ってくれよな！  週末の洗車はここに決まりだな！,34.6458988,135.5901147,05002359,05002359,05002359,05002359,05002359,05002359,05002359
2e661ede-ef64-4907-932c-14b909c8bb09,カーピカランド南の丘,大阪府貝塚市三ツ松1592,不明,FALSE,TRUE,FALSE,FALSE,噂の洗車場、「カーピカランド南の丘」を紹介するぜ！場所は貝塚市だ。  利用者からは「自動洗車機が3台+自動洗車が1台ですが 3台スペースの所に有料で使える水道ほうすが欲しい、なんなら自動洗車機でわなくて、有料の水道でも良いかなと思っている。 今...」なんて声も上がっているみたいだぜ。（星4評価）  **門型自動洗車機**があるから、手軽にサッと汚れを落としたい時にも便利だ。  営業時間は不明だ。時間内に行ってくれよな！  週末の洗車はここに決まりだな！,34.4043954,135.3820815,06002200,06002200,06002200,06002200,06002200,06002200,06002200
2f2867fd-3d7a-4c58-bdee-d1af83cfa5f2,KKR ドライブスルー洗車場,〒887-0014 宮崎県日南市岩崎１丁目３９５３−１,不明,TRUE,TRUE,FALSE,FALSE,噂の洗車場、「KKR ドライブスルー洗車場」を紹介するぜ！場所は日南市だ。  利用者からは「洗車がよだきぃ人には最適‼️ 拭かんでいいから(笑) ここの洗車機は汚れが取れんかった‼️やら言う人、洗車のやり方間違ってるんだろうな。」なんて声も上がっているみたいだぜ。（星5評価）  なんと**ノンブラシ洗車機**があるんだ！ブラシ傷を気にせず、コーティング車も安心して洗えるぜ。  営業時間は不明だ。時間内に行ってくれよな！  ちなみに、ノンブラシ洗車機の設置が確認されています。 という情報もあるみたいだ。  近くに行ったら寄ってみてくれよな！,31.601975,131.3787684,08001930,08001930,08001930,08001930,08001930,08001930,08001930
31c35470-130e-4404-8bde-db8f01d453f8,Whitepit 紀三井寺店,和歌山県和歌山市紀三井寺539-7,不明,FALSE,TRUE,FALSE,FALSE,噂の洗車場、「Whitepit 紀三井寺店」を紹介するぜ！場所は和歌山市だ。  利用者からは「和歌山に行った際に利用させていただきました。 施設はとても清潔感があり、気持ちよく利用できました。また、仕切りがあったため他の利用者を気にしなくて良いところも良...」なんて声も上がっているみたいだぜ。（星5評価）  基本的な設備はしっかり揃っているみたいだぜ。  営業時間は不明だ。時間内に行ってくれよな！  ちなみに、時間制セルフ洗車 という情報もあるみたいだ。  週末の洗車はここに決まりだな！,34.1790189,135.186025,00000000,00000000,00000000,00000000,00000000,00000000,00000000
32956f67-23e3-4bd2-9501-6361cbfdc14e,名古屋城プライベートセルフ洗車場（名城公園北）,愛知県名古屋市北区金城2-5-3,予約制,FALSE,TRUE,TRUE,FALSE,おっ、ここは名古屋市にある「名古屋城プライベートセルフ洗車場（名城公園北）」だな！  利用者からは「友人とバイク洗車する為に利用しました。 バイク2台並べてもスペースには余裕もあり、且つ洗車道具も揃っていて使い易かったです。時間も選べ利用料も友人と折半したので...」なんて声も上がっているみたいだぜ。（星5評価）  **高圧洗浄機完備**のセルフ洗車スペースがあるから、自分の手で納得いくまで綺麗にできるな。  営業時間は予約制だ。時間内に行ってくれよな！  ちなみに、予約制ガレージ型セルフ洗車場。純水器完備。 という情報もあるみたいだ。  洗車ライフを楽しんでくれよな！,35.1968521,136.9011985,07002200,07002200,07002200,07002200,07002200,07002200,07002200
34f015b2-c5df-4c25-b1ad-604504623ffb,松村物産 カーロ泉野店,石川県金沢市泉野出町2-1-1,8:00 - 20:00,TRUE,TRUE,FALSE,FALSE,噂の洗車場、「松村物産 カーロ泉野店」を紹介するぜ！場所は金沢市だ。  利用者からは「ブラシ洗車機と高圧洗車機の2台が設置されています。拭き上げスペースが広く、ドアを開けて作業がしやすいです。ガラス・ボディー用と下回り用の2種類のタオル、空気入れ...」なんて声も上がっているみたいだぜ。（星4評価）  なんと**ノンブラシ洗車機**があるんだ！ブラシ傷を気にせず、コーティング車も安心して洗えるぜ。 掃除機もあるから、車内のゴミも一掃できるぞ。  営業時間は8:00 - 20:00だ。時間内に行ってくれよな！  ちなみに、強力なノンブラシ洗車機設置。 という情報もあるみたいだ。  近くに行ったら寄ってみてくれよな！,36.5392849,136.6512934,09001800,09001800,09001800,09001800,09001800,09001800,09001800
37d46d2b-2279-4410-9ae7-0aeba57f536e,スタジアム洗車場,岩手県盛岡市上田字登坂長根59-5,24時間,TRUE,TRUE,FALSE,FALSE,おっ、ここは盛岡市にある「スタジアム洗車場」だな！  利用者からは「ひろめのスペースで、洗車後の拭き上げやコイン式掃除機で車内の清掃も楽々です。 水道はありますが、水圧が弱くバケツに貯めるのに時間がかかります。 ゲート型の洗車機...」なんて声も上がっているみたいだぜ。（星5評価）  なんと**ノンブラシ洗車機**があるんだ！ブラシ傷を気にせず、コーティング車も安心して洗えるぜ。  しかも**24時間営業**！深夜のドライブついでや、早朝の空いている時間にゆっくり洗車できるのは最高だよな。  ちなみに、ノンブラシ自動洗車機あり。コインランドリー併設。 という情報もあるみたいだ。  洗車ライフを楽しんでくれよな！,39.7019558,141.1543303,00000000,00000000,00000000,00000000,00000000,00000000,00000000
3aceb1fa-69b5-4470-8291-fc9279e30312,カーピカランド綾園,大阪府高石市綾園7-2,不明,FALSE,TRUE,FALSE,FALSE,愛車をピカピカにするなら、高石市の「カーピカランド綾園」はどうだ？  利用者からは「朝早くから使えるので便利です。 敷地が狭く、入口も狭いので幅の大きい車はちょっと大変かも。 隣は仕切られてるけど、上の隙間からめっちゃ水しぶき飛んでくるので、 ...」なんて声も上がっているみたいだぜ。（星4評価）  **門型自動洗車機**があるから、手軽にサッと汚れを落としたい時にも便利だ。  営業時間は不明だ。時間内に行ってくれよな！  近くに行ったら寄ってみてくれよな！,34.5160256,135.4267126,06002200,06002200,06002200,06002200,06002200,06002200,06002200
3b13070a-6a22-41b4-b8a3-f71b65db41cd,クリーンプラザ 本町田,〒194-0032 東京都町田市本町田,不明,FALSE,TRUE,TRUE,FALSE,噂の洗車場、「クリーンプラザ 本町田」を紹介するぜ！場所は町田市だ。  **高圧洗浄機完備**のセルフ洗車スペースがあるから、自分の手で納得いくまで綺麗にできるな。  営業時間は不明だ。時間内に行ってくれよな！  ちなみに、全国リサーチ追加 (首都圏・東海編) という情報もあるみたいだ。  愛車が綺麗になると気分も上がるよな！ぜひ行ってみてくれ！,35.564839,139.4444992,閉業,閉業,閉業,閉業,閉業,閉業,閉業
3b1c90d2-baf8-4e59-999f-3e6c8ce60d3b,カーピカランド中原,神奈川県川崎市中原区下小田中4-14-3,不明,FALSE,TRUE,FALSE,FALSE,噂の洗車場、「カーピカランド中原」を紹介するぜ！場所は川崎市だ。  利用者からは「2022年10月追記 10月から水洗車が5分に減っていました。  500円で水洗車。6分間使えて、一時停止は5分間用意されている。一時停止の5分間を使い切ると、...」なんて声も上がっているみたいだぜ。（星4評価）  **門型自動洗車機**があるから、手軽にサッと汚れを落としたい時にも便利だ。  営業時間は不明だ。時間内に行ってくれよな！  近くに行ったら寄ってみてくれよな！,35.5760152,139.6377599,07002100,07002100,07002100,07002100,07002100,07002100,07002100
3bca0b06-7405-4119-b59a-e55256433bd9,Whitepit 尼崎玉江橋店,兵庫県尼崎市東難波町5-31-8,不明,FALSE,TRUE,FALSE,FALSE,おっ、ここは尼崎市にある「Whitepit 尼崎玉江橋店」だな！  利用者からは「大変綺麗な洗車スペースで、この設備を24時間使えるのは本当に有難いです。夜は騒音とか大丈夫なのかなと思いましたが、周りに住宅などなく国道の方が煩いくらいで安心し...」なんて声も上がっているみたいだぜ。（星5評価）  基本的な設備はしっかり揃っているみたいだぜ。  営業時間は不明だ。時間内に行ってくれよな！  ちなみに、時間制セルフ洗車 という情報もあるみたいだ。  週末の洗車はここに決まりだな！,34.7212017,135.4183729,00000000,00000000,00000000,00000000,00000000,00000000,00000000
3db720e3-ee5a-4a22-b995-e8807ff5ffde,ウオッシュザウルス新大阪,大阪府大阪市東淀川区宮原2-1,不明,FALSE,TRUE,TRUE,FALSE,愛車をピカピカにするなら、大阪市の「ウオッシュザウルス新大阪」はどうだ？  **高圧洗浄機完備**のセルフ洗車スペースがあるから、自分の手で納得いくまで綺麗にできるな。  営業時間は不明だ。時間内に行ってくれよな！  ちなみに、全国リサーチ追加 (大阪編) という情報もあるみたいだ。  近くに行ったら寄ってみてくれよな！,34.7387545,135.5023618,07002230,07002230,07002230,07002230,07002230,07002230,07002230
3dcb91f8-8afe-4cad-b961-f0c67671f5a4,CARWASHDEPOT 野々市市矢作店,〒921-8822 石川県野々市市矢作２丁目１０５,不明,TRUE,TRUE,FALSE,FALSE,噂の洗車場、「CARWASHDEPOT 野々市市矢作店」を紹介するぜ！場所は野々市だ。  利用者からは「バイクも気兼ねなく洗車出来ました。お釣りも出ず、価格も安くはないけれど、隣のコインランドリーの中で両替出来るから問題なし。広いしゆっくり出来た。」なんて声も上がっているみたいだぜ。（星4評価）  なんと**ノンブラシ洗車機**があるんだ！ブラシ傷を気にせず、コーティング車も安心して洗えるぜ。  営業時間は不明だ。時間内に行ってくれよな！  ちなみに、ノーブラシ門型自動洗車機2台のみの専門店。 という情報もあるみたいだ。  近くに行ったら寄ってみてくれよな！,36.5219426,136.6126468,05002300,05002300,05002300,05002300,05002300,05002300,05002300
3e9d3505-3a4f-4a39-9512-6b8a6da51584,カーピカランド藤阪,大阪府枚方市藤阪東町4-7,不明,FALSE,TRUE,TRUE,FALSE,おっ、ここは枚方市にある「カーピカランド藤阪」だな！  利用者からは「晴れた週末は混雑していますが、平日はわりと利用者は少なく、のんびりと使える洗車場です。 高圧洗浄機が4台、室内掃除機が2台あり、バケツなどに水を汲んだりするため...」なんて声も上がっているみたいだぜ。（星4評価）  **高圧洗浄機完備**のセルフ洗車スペースがあるから、自分の手で納得いくまで綺麗にできるな。  営業時間は不明だ。時間内に行ってくれよな！  ちなみに、全国リサーチ追加 (大阪編) という情報もあるみたいだ。  洗車ライフを楽しんでくれよな！,34.8168945,135.7101377,営業時間不明・日の出～日の入りと看板あり,営業時間不明・日の出～日の入りと看板あり,営業時間不明・日の出～日の入りと看板あり,営業時間不明・日の出～日の入りと看板あり,営業時間不明・日の出～日の入りと看板あり,営業時間不明・日の出～日の入りと看板あり,営業時間不明・日の出～日の入りと看板あり
3fa96340-69f7-4a5d-a6de-22ccaf05fbdc,CAR WASH 24時間 コイン洗車,〒065-0011 北海道札幌市東区北１１条東１１丁目１,24時間,FALSE,TRUE,TRUE,FALSE,おっ、ここは札幌市にある「CAR WASH 24時間 コイン洗車」だな！  利用者からは「温水洗車　３分　200円 短時間で、ちょとだけ洗車。 ちょうど良い。」なんて声も上がっているみたいだぜ。（星4評価）  **高圧洗浄機完備**のセルフ洗車スペースがあるから、自分の手で納得いくまで綺麗にできるな。  しかも**24時間営業**！深夜のドライブついでや、早朝の空いている時間にゆっくり洗車できるのは最高だよな。  ちなみに、スプレー4台、温水あり。手洗いノンブラシ派に。 という情報もあるみたいだ。  近くに行ったら寄ってみてくれよな！,43.0617713,141.3544506,00000000,00000000,00000000,00000000,00000000,00000000,00000000
3fba7332-016c-448a-9eb1-eabd7b970e57,ALAUDAY 東大阪店,〒578-0901 大阪府東大阪市加納５丁目１５−３,不明,FALSE,TRUE,FALSE,FALSE,おっ、ここは東大阪市にある「ALAUDAY 東大阪店」だな！  利用者からは「セルフ洗車場がオープンしたとのことなので、3週間くらい洗ってなかったハスラーを洗車しに行きました。 専用のアプリにクレカを登録しないと利用できないので注意。洗車...」なんて声も上がっているみたいだぜ。（星4評価）  基本的な設備はしっかり揃っているみたいだぜ。  営業時間は不明だ。時間内に行ってくれよな！  ちなみに、ソフト99運営の新型セルフ洗車場 という情報もあるみたいだ。  近くに行ったら寄ってみてくれよな！,34.6792862,135.600851,07002100,07002100,07002100,07002100,07002100,07002100,07002100
410e5a78-2796-4944-9091-c40a435a82ae,カーランドリートップ,愛知県豊川市,不明,FALSE,TRUE,TRUE,FALSE,愛車をピカピカにするなら、豊川市の「カーランドリートップ」はどうだ？  利用者からは「朝5時から空いていて、涼しい時間から洗車でき、のんびり手洗いとかできるのがいい。 自販機と簡易トイレもあるのもすばらしい。」なんて声も上がっているみたいだぜ。（星5評価）  **高圧洗浄機完備**のセルフ洗車スペースがあるから、自分の手で納得いくまで綺麗にできるな。  営業時間は不明だ。時間内に行ってくれよな！  ちなみに、全国リサーチ追加 (首都圏・東海編) という情報もあるみたいだ。  洗車ライフを楽しんでくれよな！,34.8267523,137.3757774,不明,不明,不明,不明,不明,不明,不明
4406df60-5ac3-4a4b-8f7b-c12587b22ecf,ウォッシュクリーン大泉,〒178-0062 東京都練馬区大泉町１丁目４６−４,不明,FALSE,TRUE,TRUE,FALSE,おっ、ここは練馬区にある「ウォッシュクリーン大泉」だな！  利用者からは「今では数少ないスプレーガンコイン洗車場です。 機械式の洗車機も2台あります。 ただ場所が分かりづらいです。 トイレもあるので安心です。」なんて声も上がっているみたいだぜ。（星5評価）  **高圧洗浄機完備**のセルフ洗車スペースがあるから、自分の手で納得いくまで綺麗にできるな。  営業時間は不明だ。時間内に行ってくれよな！  ちなみに、全国リサーチ追加 (首都圏・東海編) という情報もあるみたいだ。  週末の洗車はここに決まりだな！,35.7643751,139.6018654,06002100,06002100,06002000,06002100,06002100,06002100,06002100
44796823-2b1c-475d-8985-d6256ddbb6cc,洗車のジャバ 京橋店,大阪府大阪市都島区片町2-3-2,不明,TRUE,TRUE,FALSE,FALSE,愛車をピカピカにするなら、大阪市の「洗車のジャバ 京橋店」はどうだ？  利用者からは「ノーブラシ洗車なので洗車キズがつかない安心できる洗車場。  セルフもあるし、日中はガラスコーティングもスタッフの人がやってくれるみたいなので、洗車したい方におす...」なんて声も上がっているみたいだぜ。（星4評価）  なんと**ノンブラシ洗車機**があるんだ！ブラシ傷を気にせず、コーティング車も安心して洗えるぜ。  営業時間は不明だ。時間内に行ってくれよな！  洗車ライフを楽しんでくれよな！,34.6940641,135.5287075,05002359,05002359,05002359,05002359,05002359,05002359,05002359
460a179f-1392-470c-9c2f-6f138e6360f5,カーピカランド ピットイン,〒446-0026 愛知県安城市安城町西広畔３４−１,不明,FALSE,TRUE,TRUE,FALSE,噂の洗車場、「カーピカランド ピットイン」を紹介するぜ！場所は安城市だ。  利用者からは「吹上場が屋根ありで、照明の光加減も抜群なので、洗車後の手入れが非常に捗ります。 市内のコイン洗車場は住宅街にあることが多くて、気をつかうのですが、ここは大通りに...」なんて声も上がっているみたいだぜ。（星5評価）  **高圧洗浄機完備**のセルフ洗車スペースがあるから、自分の手で納得いくまで綺麗にできるな。  営業時間は不明だ。時間内に行ってくれよな！  ちなみに、全国リサーチ追加 (首都圏・東海編) という情報もあるみたいだ。  週末の洗車はここに決まりだな！,34.9586216,137.0803649,06002200,06002200,06002200,06002200,06002200,06002200,06002200
480c2ecf-2f7a-4f99-88b5-30fbc26cec83,サクセス洗車場 広島1号店,広島県広島市佐伯区石内南4丁目3-5,5:30 - 21:30,TRUE,TRUE,FALSE,FALSE,おっ、ここは広島市にある「サクセス洗車場 広島1号店」だな！  利用者からは「ブラシを使用しない高圧水流での洗車場です。運転免許センターへの入口付近の角地にあり目立ちます。 現在は洗車機2台が稼働しており、拭き取り場が広くてタオルや手洗い...」なんて声も上がっているみたいだぜ。（星5評価）  なんと**ノンブラシ洗車機**があるんだ！ブラシ傷を気にせず、コーティング車も安心して洗えるぜ。  営業時間は5:30 - 21:30だ。時間内に行ってくれよな！  ちなみに、中国地方初のノーブラシ門型洗車機導入店。 という情報もあるみたいだ。  週末の洗車はここに決まりだな！,34.4134524,132.3896133,05302130,05302130,05302130,05302130,05302130,05302130,05302130
4a154dab-c436-4fe6-94bd-ec9ea8a50427,D-Wash 六角橋,〒221-0802 神奈川県横浜市神奈川区六角橋６丁目１８−２３,不明,FALSE,TRUE,FALSE,FALSE,おっ、ここは横浜市にある「D-Wash 六角橋」だな！  利用者からは「じっくり洗車したい人にはおすすめ。 本格的ないろんなギアが利用できるから、洗車好きには最適な環境ですね。 領収書も出るのは何気にありがたい。」なんて声も上がっているみたいだぜ。（星5評価）  基本的な設備はしっかり揃っているみたいだぜ。  営業時間は不明だ。時間内に行ってくれよな！  近くに行ったら寄ってみてくれよな！,35.4877665,139.6184342,06002300,06002300,06002300,06002300,06002300,06002300,06002300
4ac46eae-e24d-4d08-b0e1-e559f4bba44f,松岡自動車 コイン洗車場,〒770-8021 徳島県徳島市雑賀町西開８１−１,不明,FALSE,TRUE,FALSE,FALSE,愛車をピカピカにするなら、徳島市の「松岡自動車 コイン洗車場」はどうだ？  利用者からは「洗車場所と拭き上げ場所が近いので風の強さ、向きが悪いと飛沫が飛んで来そうなのが気になるくらい。水道の蛇口もあり無料なので自前シャンプーもちゃんと作れる。オーナー...」なんて声も上がっているみたいだぜ。（星4評価）  **門型自動洗車機**があるから、手軽にサッと汚れを落としたい時にも便利だ。 掃除機もあるから、車内のゴミも一掃できるぞ。  営業時間は不明だ。時間内に行ってくれよな！  ちなみに、ボディドライヤーあり。 という情報もあるみたいだ。  近くに行ったら寄ってみてくれよな！,34.0703652,134.5549537,09001900,09001900,09001900,09001900,09001900,09001900,10001700
4f71f8e5-fc26-495b-a708-7fc9bc73ee9e,カーシャンランドアーク,〒421-3201 静岡県静岡市清水区蒲原東２８,不明,FALSE,TRUE,TRUE,FALSE,愛車をピカピカにするなら、静岡市の「カーシャンランドアーク」はどうだ？  利用者からは「城北と同じ洗車機ですが、こちらの方が洗車ガンのノズルが短くて個人的には使いやすい。 穴場だと思います。」なんて声も上がっているみたいだぜ。（星4評価）  **高圧洗浄機完備**のセルフ洗車スペースがあるから、自分の手で納得いくまで綺麗にできるな。  営業時間は不明だ。時間内に行ってくれよな！  ちなみに、全国リサーチ追加 (首都圏・東海編) という情報もあるみたいだ。  週末の洗車はここに決まりだな！,35.1132336,138.4987208,07302200,07302200,07302200,07302200,07302200,07302200,07302200
5084b36c-dafd-4b6d-96fb-38f0a06632e2,Whitepit 京都伏見本店,京都府京都市伏見区南寝小屋町14,不明,FALSE,TRUE,FALSE,FALSE,おっ、ここは府京都市にある「Whitepit 京都伏見本店」だな！  利用者からは「希少なセルフ洗車場です。 自分でしっかり洗いたい場合はこちら一択かと。 この手のセルフ洗車場が周辺にほぼないため混みやすいです。 ゲート前に数台並ぶことができま...」なんて声も上がっているみたいだぜ。（星4評価）  基本的な設備はしっかり揃っているみたいだぜ。  営業時間は不明だ。時間内に行ってくれよな！  ちなみに、時間制セルフ洗車 という情報もあるみたいだ。  洗車ライフを楽しんでくれよな！,34.9381598,135.750921,00000000,00000000,00000000,00000000,00000000,00000000,00000000
515f7a4d-3c3f-4f16-82b2-79b12f0d3100,D-Wash 武蔵村山,東京都武蔵村山市伊奈平1-76,不明,FALSE,TRUE,FALSE,FALSE,噂の洗車場、「D-Wash 武蔵村山」を紹介するぜ！場所は武蔵村山市だ。  基本的な設備はしっかり揃っているみたいだぜ。  営業時間は不明だ。時間内に行ってくれよな！  ちなみに、2026年新春OPEN予定 という情報もあるみたいだ。  週末の洗車はここに決まりだな！,35.7437397,139.3752304,06002300,06002300,06002300,06002300,06002300,06002300,06002300
5203d7d4-f358-4218-be8a-a4d7db5c7bc4,カーピカランドたまプラーザ,〒225-0002 神奈川県横浜市青葉区美しが丘２丁目,不明,FALSE,TRUE,TRUE,FALSE,おっ、ここは横浜市にある「カーピカランドたまプラーザ」だな！  利用者からは「入口の道幅は狭いですが、場内は比較的スペースは広かったです。 洗車コースは、泡洗剤の水ロング900円にしました。 すすぎの水の時間も十分足りました。  また、Q...」なんて声も上がっているみたいだぜ。（星4評価）  **高圧洗浄機完備**のセルフ洗車スペースがあるから、自分の手で納得いくまで綺麗にできるな。  営業時間は不明だ。時間内に行ってくれよな！  ちなみに、全国リサーチ追加 (首都圏・東海編) という情報もあるみたいだ。  近くに行ったら寄ってみてくれよな！,35.5501407,139.5154425,00000000,00000000,00000000,00000000,00000000,00000000,00000000
5478cfd3-f71c-4f4f-ae81-d9ea8252c2f1,WASH!PLAZA,〒236-0002 神奈川県横浜市金沢区鳥浜町１２−１１,不明,FALSE,TRUE,TRUE,FALSE,おっ、ここは横浜市にある「WASH!PLAZA」だな！  利用者からは「高圧&泡洗車に来ました。ここは屋根があって夏もその下で作業が出来て助かります。夏はサンダルに履き替えて洗車してます。以前来た時から料金が上がっていました。洗車に...」なんて声も上がっているみたいだぜ。（星5評価）  **高圧洗浄機完備**のセルフ洗車スペースがあるから、自分の手で納得いくまで綺麗にできるな。  営業時間は不明だ。時間内に行ってくれよな！  ちなみに、全国リサーチ追加 (首都圏・東海編) という情報もあるみたいだ。  洗車ライフを楽しんでくれよな！,35.3853477,139.6439339,00000000,00000000,00000000,00000000,00000000,00000000,00000000
55a71e8e-25de-4d9f-9f9c-f96dcc075fb3,カーピカランド レインボー 岩倉店,愛知県岩倉市稲荷町高畑54,不明,FALSE,TRUE,FALSE,FALSE,愛車をピカピカにするなら、岩倉市の「カーピカランド レインボー 岩倉店」はどうだ？  利用者からは「24時やってる！夏は暑いから夜は最高！結構利用する人多いとおもう！」なんて声も上がっているみたいだぜ。（星5評価）  **門型自動洗車機**があるから、手軽にサッと汚れを落としたい時にも便利だ。  営業時間は不明だ。時間内に行ってくれよな！  愛車が綺麗になると気分も上がるよな！ぜひ行ってみてくれ！,35.268923,136.8699074,00000000,00000000,00000000,00000000,00000000,00000000,00000000
5b0e1578-3179-4f54-bb89-ed78af551b1b,カーピカランド岩戸,〒270-1616 千葉県印西市岩戸３２４５−１ ※付近,不明,FALSE,TRUE,TRUE,FALSE,おっ、ここは印西市にある「カーピカランド岩戸」だな！  利用者からは「たまたま印西で用事があったあと鳥フン攻撃で急遽寄りました。 都内と違い広々してゆっくり洗車できます。 オススメスポットです。」なんて声も上がっているみたいだぜ。（星5評価）  **高圧洗浄機完備**のセルフ洗車スペースがあるから、自分の手で納得いくまで綺麗にできるな。  営業時間は不明だ。時間内に行ってくれよな！  ちなみに、全国リサーチ追加 (首都圏・東海編) という情報もあるみたいだ。  近くに行ったら寄ってみてくれよな！,35.7678069,140.1678121,06002100,06002100,06002100,06002100,06002100,06002100,06002100
5c42d873-d303-4e57-88fc-d3e2b50af7d6,JAVA 藤枝築地店,静岡県藤枝市築地1-6-16,5:00 - 23:00,TRUE,TRUE,TRUE,FALSE,愛車をピカピカにするなら、藤枝市の「JAVA 藤枝築地店」はどうだ？  利用者からは「いつも利用してたので残念です、ノーブラシ洗車よかったのに(>_」なんて声も上がっているみたいだぜ。（星5評価）  なんと**ノンブラシ洗車機**があるんだ！ブラシ傷を気にせず、コーティング車も安心して洗えるぜ。 **高圧洗浄機完備**のセルフ洗車スペースがあるから、自分の手で納得いくまで綺麗にできるな。  営業時間は5:00 - 23:00だ。時間内に行ってくれよな！  ちなみに、ノーブラシ洗車機あり。 という情報もあるみたいだ。  愛車が綺麗になると気分も上がるよな！ぜひ行ってみてくれ！,34.858079,138.2671946,閉業,閉業,閉業,閉業,閉業,閉業,閉業
5c7e2200-41ba-4daa-a99a-2d7f2a8e451f,カーウォッシュプラザ ブライトン,〒242-0029 神奈川県大和市上草柳８丁目２,不明,FALSE,TRUE,TRUE,FALSE,噂の洗車場、「カーウォッシュプラザ ブライトン」を紹介するぜ！場所は大和市だ。  利用者からは「ブラシのない洗車機は初めてだったのですが、水圧だけで汚れが綺麗に落ちました。また利用したいと思います。」なんて声も上がっているみたいだぜ。（星5評価）  **高圧洗浄機完備**のセルフ洗車スペースがあるから、自分の手で納得いくまで綺麗にできるな。  営業時間は不明だ。時間内に行ってくれよな！  ちなみに、全国リサーチ追加 (首都圏・東海編) という情報もあるみたいだ。  愛車が綺麗になると気分も上がるよな！ぜひ行ってみてくれ！,35.4780511,139.4491425,06302100,06302100,06302100,06302100,06302100,06302100,06302100
5cf81805-e589-4e57-a947-2671da90c68c,D-Wash 富山黒瀬,富山県富山市黒瀬北町2-10-3,不明,FALSE,TRUE,FALSE,FALSE,噂の洗車場、「D-Wash 富山黒瀬」を紹介するぜ！場所は富山市だ。  基本的な設備はしっかり揃っているみたいだぜ。  営業時間は不明だ。時間内に行ってくれよな！  ちなみに、2024年11月OPEN という情報もあるみたいだ。  近くに行ったら寄ってみてくれよな！,36.6662109,137.2017425,10002000,10002000,10002000,10002000,10002000,10002000,10002000
5dd11ae5-db6f-4a90-995b-eb59f61d6721,洗車公園せいしん,兵庫県神戸市西区平野町山の谷358-36,不明,FALSE,TRUE,TRUE,FALSE,噂の洗車場、「洗車公園せいしん」を紹介するぜ！場所は神戸市だ。  利用者からは「軽い洗車なら安いし、ちょうど良い。 ただ設備は古くなってるので、注意は必要」なんて声も上がっているみたいだぜ。（星4評価）  **高圧洗浄機完備**のセルフ洗車スペースがあるから、自分の手で納得いくまで綺麗にできるな。 **門型自動洗車機**があるから、手軽にサッと汚れを落としたい時にも便利だ。  営業時間は不明だ。時間内に行ってくれよな！  ちなみに、関西最大級、広大な敷地。 という情報もあるみたいだ。  愛車が綺麗になると気分も上がるよな！ぜひ行ってみてくれ！,34.703359,134.9828473,06002300,06002300,06002300,06002300,06002300,06002300,06002300
5fe85d8d-2124-47d9-9737-4da4759579f6,洗車CLUB岸里,大阪府大阪市西成区岸里2-13-1,不明,FALSE,TRUE,TRUE,FALSE,おっ、ここは大阪市にある「洗車CLUB岸里」だな！  **高圧洗浄機完備**のセルフ洗車スペースがあるから、自分の手で納得いくまで綺麗にできるな。  営業時間は不明だ。時間内に行ってくれよな！  ちなみに、全国リサーチ追加 (大阪編) という情報もあるみたいだ。  週末の洗車はここに決まりだな！,34.6326039,135.4948503,05002359,05002359,05002359,05002359,05002359,05002359,05002359
601454ba-003c-4285-8731-023909802dc5,Whitepit 南区東海通店,愛知県名古屋市南区戸部下1-2-1,時間制,FALSE,TRUE,TRUE,FALSE,噂の洗車場、「Whitepit 南区東海通店」を紹介するぜ！場所は名古屋市だ。  利用者からは「名古屋市内の洗車場では間違いなくこちらがおすすめです。 ホワイトピットさんのセルフ洗車場は日本全国で見ても店舗数が少ないので、貴重な一店舗だと思います。 冬は温...」なんて声も上がっているみたいだぜ。（星5評価）  **高圧洗浄機完備**のセルフ洗車スペースがあるから、自分の手で納得いくまで綺麗にできるな。  営業時間は時間制だ。時間内に行ってくれよな！  ちなみに、時間制セルフ洗車。冬は温水あり。 という情報もあるみたいだ。  近くに行ったら寄ってみてくれよな！,35.10755,136.9190601,00000000,00000000,00000000,00000000,00000000,00000000,00000000
602438df-9889-4333-85f9-1a87e6ca61b5,Whitepit 和歌山大浦店,和歌山県和歌山市湊御殿2-3-6,不明,FALSE,TRUE,FALSE,FALSE,噂の洗車場、「Whitepit 和歌山大浦店」を紹介するぜ！場所は和歌山市だ。  利用者からは「最新の時間制セルフ洗車場 十分なスペースと最新の設備。冬はお湯も出るので、自分のペースで隅々まで丁寧に洗える。 仕切られた仕上げブースが広々としている為、まわり...」なんて声も上がっているみたいだぜ。（星5評価）  基本的な設備はしっかり揃っているみたいだぜ。  営業時間は不明だ。時間内に行ってくれよな！  ちなみに、時間制セルフ洗車 という情報もあるみたいだ。  洗車ライフを楽しんでくれよな！,34.2195954,135.1558831,00000000,00000000,00000000,00000000,00000000,00000000,00000000
617fb252-00ee-408c-996b-feeac7080910,Kireine野洲店（参考：滋賀県ですが東海圏からもアクセス可）,滋賀県野洲市市三宅2456,24時間,TRUE,TRUE,FALSE,FALSE,愛車をピカピカにするなら、野洲市の「Kireine野洲店（参考：滋賀県ですが東海圏からもアクセス可）」はどうだ？  なんと**ノンブラシ洗車機**があるんだ！ブラシ傷を気にせず、コーティング車も安心して洗えるぜ。  しかも**24時間営業**！深夜のドライブついでや、早朝の空いている時間にゆっくり洗車できるのは最高だよな。  ちなみに、東海エリアからも比較的近い本格ノンブラシ洗車場。 という情報もあるみたいだ。  近くに行ったら寄ってみてくれよな！,35.0686081,136.0189718,07002200,07002200,07002200,07002200,07002200,07002200,07002200
61d4e8da-a1c4-4d9a-b798-4d2b86215d1c,カーピカランド泉南IC,大阪府泉南市信達金熊寺110,不明,FALSE,TRUE,FALSE,FALSE,噂の洗車場、「カーピカランド泉南IC」を紹介するぜ！場所は泉南市だ。  利用者からは「400円～洗車可能 さらに料金を払えば泡つきも選べ、噴射機終了後は100円で継続可 千円の両替ができる自販機がちょっと面白い　缶の中に100円玉10枚が入ってい...」なんて声も上がっているみたいだぜ。（星5評価）  **門型自動洗車機**があるから、手軽にサッと汚れを落としたい時にも便利だ。  営業時間は不明だ。時間内に行ってくれよな！  洗車ライフを楽しんでくれよな！,34.3459201,135.2865339,06002200,06002200,06002200,06002200,06002200,06002200,06002200
66e03832-be66-4f1b-bbe0-e26377ff11f1,カーポート矢野目,〒960-0113 福島県福島市北矢野目小原田西１８,不明,TRUE,TRUE,FALSE,FALSE,愛車をピカピカにするなら、福島市の「カーポート矢野目」はどうだ？  利用者からは「ブラシレス洗車機利用のため、訪問。  夜中の高速でついた虫の◯骸くらいなら、これで無かったことに出来る。 拭き上げ用のタオル等、気の利いたものは一切ないため、適...」なんて声も上がっているみたいだぜ。（星4評価）  なんと**ノンブラシ洗車機**があるんだ！ブラシ傷を気にせず、コーティング車も安心して洗えるぜ。  営業時間は不明だ。時間内に行ってくれよな！  ちなみに、ノンブラシ洗車、モコモコ泡洗車あり。 という情報もあるみたいだ。  洗車ライフを楽しんでくれよな！,37.7878422,140.4655907,06002300,06002300,06002300,06002300,06002300,06002300,06002300
67f3d151-808a-4d6c-8756-d6e82fb35848,きらり洗車村,〒465-0058 愛知県名古屋市名東区貴船３丁目２７０５,不明,FALSE,TRUE,TRUE,FALSE,"愛車をピカピカにするなら、名古屋市の「きらり洗車村」はどうだ？  利用者からは「洗車機は、￥1,５００コース。撥水剤の効果は抜群ですね！わざと雨降り狙って拭き取り無しで、放置すると一層効果有り！スタンド洗車機よりも撥水効果有り！看板記載に偽...」なんて声も上がっているみたいだぜ。（星4評価）  **高圧洗浄機完備**のセルフ洗車スペースがあるから、自分の手で納得いくまで綺麗にできるな。  営業時間は不明だ。時間内に行ってくれよな！  ちなみに、全国リサーチ追加 (首都圏・東海編) という情報もあるみたいだ。  近くに行ったら寄ってみてくれよな！",35.1752621,137.0029684,07002130,07002130,07002130,07002130,07002130,07002130,07002130
680132cb-aa94-475f-b154-9e40d7d9abb1,ウォッシュアイランド 名戸ヶ谷店,〒277-0032 千葉県柏市名戸ケ谷４７５−１,不明,FALSE,TRUE,TRUE,FALSE,愛車をピカピカにするなら、柏市の「ウォッシュアイランド 名戸ヶ谷店」はどうだ？  利用者からは「4/9日曜日の午前中に行きました。混んでました。洗車機待ち２台位でした。でも５分位で空きました。」なんて声も上がっているみたいだぜ。（星4評価）  **高圧洗浄機完備**のセルフ洗車スペースがあるから、自分の手で納得いくまで綺麗にできるな。  営業時間は不明だ。時間内に行ってくれよな！  ちなみに、全国リサーチ追加 (首都圏・東海編) という情報もあるみたいだ。  愛車が綺麗になると気分も上がるよな！ぜひ行ってみてくれ！,35.8444319,139.981561,00000000,00000000,00000000,00000000,00000000,00000000,00000000
68633208-fc95-4882-a74f-81c3fa21c928,カーピカランドクリーン香芝,〒639-0261 奈良県香芝市尼寺２丁目９８,不明,FALSE,TRUE,FALSE,FALSE,愛車をピカピカにするなら、香芝市の「カーピカランドクリーン香芝」はどうだ？  利用者からは「洗車機が2台だけど掃除機も2台で5分100円で意外と使える。。 車体拭きも４台分あり。  なかなか良い。。 しかも水道に温かいジャグジが有るとゆう仲々の。。 仲...」なんて声も上がっているみたいだぜ。（星4評価）  **門型自動洗車機**があるから、手軽にサッと汚れを落としたい時にも便利だ。  営業時間は不明だ。時間内に行ってくれよな！  週末の洗車はここに決まりだな！,34.5412467,135.6989837,00000000,00000000,00000000,00000000,00000000,00000000,00000000
6ba41c1c-a840-427f-95e0-47645b9a159f,ノンブラシ洗車 ZERO STYLE 奈良広陵店,奈良県北葛城郡広陵町大字安部450-1,7:00 - 22:00,TRUE,TRUE,FALSE,FALSE,噂の洗車場、「ノンブラシ洗車 ZERO STYLE 奈良広陵店」を紹介するぜ！場所は北葛城郡だ。  利用者からは「毎度利用させていただいてます コーティング車なのでブラシがダメなためかなり助かっております タオル等も準備があるので、車内洗車にも困りません！」なんて声も上がっているみたいだぜ。（星5評価）  なんと**ノンブラシ洗車機**があるんだ！ブラシ傷を気にせず、コーティング車も安心して洗えるぜ。  営業時間は7:00 - 22:00だ。時間内に行ってくれよな！  ちなみに、ノンブラシ洗車専門店。 という情報もあるみたいだ。  近くに行ったら寄ってみてくれよな！,34.5337316,135.7452875,00000000,00000000,00000000,00000000,00000000,00000000,00000000
6c42acab-e1db-4eed-8238-2968110ea8d5,CarWash Shinomiya CafeGarden (カーウォッシュ シノミヤ カフェガーデン),大阪府門真市四宮6-2-32,6:00 - 22:00,TRUE,TRUE,FALSE,FALSE,おっ、ここは門真市にある「CarWash Shinomiya CafeGarden (カーウォッシュ シノミヤ カフェガーデン)」だな！  利用者からは「多少拭き上げスペースの大きさは小さく感じますが、各々配慮しながら作業すればそこまで問題ないかと思います。 場所自体も個人的には落ち着いて作業しやすくて好きですし...」なんて声も上がっているみたいだぜ。（星5評価）  なんと**ノンブラシ洗車機**があるんだ！ブラシ傷を気にせず、コーティング車も安心して洗えるぜ。 掃除機もあるから、車内のゴミも一掃できるぞ。  営業時間は6:00 - 22:00だ。時間内に行ってくれよな！  ちなみに、ノーブラシ洗車機3台。カフェ併設。 という情報もあるみたいだ。  愛車が綺麗になると気分も上がるよな！ぜひ行ってみてくれ！,34.7303058,135.6129776,05302200,05302200,05302200,05302200,05302200,05302200,05302200
6e487e96-e0fa-486a-93d3-5fddd2b103c2,洗車のジャバ 大和川店,大阪府大阪市平野区瓜破1-7-16,不明,TRUE,TRUE,FALSE,FALSE,おっ、ここは大阪市にある「洗車のジャバ 大和川店」だな！  利用者からは「敷地が広く洗車後の拭き取り作業などがしやすい。ノンブラシの洗車機があり黄砂の後によく利用している。マットクリーナーがあれば言う事なし。」なんて声も上がっているみたいだぜ。（星5評価）  なんと**ノンブラシ洗車機**があるんだ！ブラシ傷を気にせず、コーティング車も安心して洗えるぜ。  営業時間は不明だ。時間内に行ってくれよな！  愛車が綺麗になると気分も上がるよな！ぜひ行ってみてくれ！,34.60549,135.5517253,05002359,05002359,05002359,05002359,05002359,05002359,05002359
6f2e67fd-8def-4e3e-a14b-1b136b841212,カーウォッシュ大井,東京都品川区勝島1-8,09:00-21:00 (季節・競馬開催日変動あり),TRUE,TRUE,TRUE,FALSE,"愛車をピカピカにするなら、品川区の「カーウォッシュ大井」はどうだ？  利用者からは「初めて利用しました。待ち３台で20分くらい。足廻りの泥汚れが泡洗車でスッキリです。 次回はハケで細かな所も洗う予定。 拭き上げ場所も広くて良い!」なんて声も上がっているみたいだぜ。（星4評価）  なんと**ノンブラシ洗車機**があるんだ！ブラシ傷を気にせず、コーティング車も安心して洗えるぜ。 **高圧洗浄機完備**のセルフ洗車スペースがあるから、自分の手で納得いくまで綺麗にできるな。 掃除機もあるから、車内のゴミも一掃できるぞ。  営業時間は09:00-21:00 (季節・競馬開催日変動あり)だ。時間内に行ってくれよな！  ちなみに、料金例: 入場料無料, 洗車機・スプレー各料金設定 という情報もあるみたいだ。  愛車が綺麗になると気分も上がるよな！ぜひ行ってみてくれ！",35.5962539,139.7429292,08002100,08002100,08002100,08002100,08002100,08002100,08002100
6fece2de-0807-4d5b-9eca-ddf744568536,カーピカランド レインボー 今伊勢店,愛知県一宮市今伊勢町本神戸中町21,不明,FALSE,TRUE,FALSE,FALSE,噂の洗車場、「カーピカランド レインボー 今伊勢店」を紹介するぜ！場所は一宮市だ。  利用者からは「純水で洗車ができます。価格は少し高いですが、キレイになります。現金支払いのみ。」なんて声も上がっているみたいだぜ。（星5評価）  **門型自動洗車機**があるから、手軽にサッと汚れを落としたい時にも便利だ。  営業時間は不明だ。時間内に行ってくれよな！  洗車ライフを楽しんでくれよな！,35.3141447,136.7970777,00000000,00000000,00000000,00000000,00000000,00000000,00000000
736cb76f-efad-4fb4-ba0e-9ad036a8eaab,SPLASH 'N' GO! 新前橋店,〒371-0844 群馬県前橋市古市町２２０−１,不明,FALSE,TRUE,FALSE,FALSE,噂の洗車場、「SPLASH 'N' GO! 新前橋店」を紹介するぜ！場所は前橋市だ。  利用者からは「近所に出来たので早速洗車して来ました。 待たずに出来て、なんの苦労も無く洗車出来ました。おそらく女性でも問題無く簡単に出来ると思います。(車に乗っているだけなの...」なんて声も上がっているみたいだぜ。（星5評価）  基本的な設備はしっかり揃っているみたいだぜ。  営業時間は不明だ。時間内に行ってくれよな！  ちなみに、トンネル型連続洗車機 という情報もあるみたいだ。  週末の洗車はここに決まりだな！,36.3894669,139.0634134,09001900,09001900,09001900,09001900,09001900,09001900,09001900
738909d9-e9ce-4677-99a0-2ea0b0ab8e9c,洗車のジャバ 厚木三田店,神奈川県厚木市三田2926,不明,TRUE,TRUE,FALSE,FALSE,噂の洗車場、「洗車のジャバ 厚木三田店」を紹介するぜ！場所は厚木市だ。  利用者からは「高圧洗浄機の水圧が高くて好き。 交通量の少ない道路沿いに有るので通行車にじろじろ見られず此も良い。 混んでない時を狙って行けばゆっくり洗車できます。 雨が降りそ...」なんて声も上がっているみたいだぜ。（星4評価）  なんと**ノンブラシ洗車機**があるんだ！ブラシ傷を気にせず、コーティング車も安心して洗えるぜ。  営業時間は不明だ。時間内に行ってくれよな！  愛車が綺麗になると気分も上がるよな！ぜひ行ってみてくれ！,35.4888902,139.3470263,06002100,06002100,06002100,06002100,06002100,06002100,06002100
73fa6bcd-5cb0-43fe-a241-a5deee8716ed,ピカピカラボ,三重県伊勢市小俣町湯田1516-1,不明,FALSE,TRUE,FALSE,FALSE,愛車をピカピカにするなら、伊勢市の「ピカピカラボ」はどうだ？  利用者からは「コイン洗車機4ブース、門型自動洗車機2機あり。 どちらも水処理した水を使っているので、イオンデポが残りにくい。 吹上げブースも屋根、照明付きで6ブースほどある。...」なんて声も上がっているみたいだぜ。（星5評価）  **門型自動洗車機**があるから、手軽にサッと汚れを落としたい時にも便利だ。  営業時間は不明だ。時間内に行ってくれよな！  ちなみに、超純水洗車機（ノンブラシかは要確認だが高機能）。 という情報もあるみたいだ。  近くに行ったら寄ってみてくれよな！,34.5085796,136.6463275,00000000,00000000,00000000,00000000,00000000,00000000,00000000
747b1e07-f787-40ad-9bc5-a8262292ed19,カーウォッシュ21堺出島,大阪府堺市堺区出島海岸通3-5,不明,FALSE,TRUE,TRUE,FALSE,愛車をピカピカにするなら、堺市の「カーウォッシュ21堺出島」はどうだ？  利用者からは「自動洗車利用ですが、料金も安く敷地内も広々していて拭き上げ作業が非常に捗りました。  雪山帰りに利用。撥水コートで汚れ綺麗に落ちました❗️」なんて声も上がっているみたいだぜ。（星5評価）  **高圧洗浄機完備**のセルフ洗車スペースがあるから、自分の手で納得いくまで綺麗にできるな。  営業時間は不明だ。時間内に行ってくれよな！  ちなみに、全国リサーチ追加 (大阪編) という情報もあるみたいだ。  洗車ライフを楽しんでくれよな！,34.5677937,135.4570165,06002300,06002300,06002300,06002300,06002300,06002300,06002300
74a38f5b-5fa8-483a-b3c7-60ade7bda82b,洗車のジャバ 伊丹荒牧店,兵庫県伊丹市荒牧南3-3-10,5:00 - 24:00,TRUE,TRUE,TRUE,FALSE,おっ、ここは伊丹市にある「洗車のジャバ 伊丹荒牧店」だな！  利用者からは「通りがかりに見つけてタイミング的に洗車しに立ち寄ったら、めちゃ良いではありませんか(^｡^)  今日は係の人がいて、タイヤホイール手洗い手伝ってくれました （あ...」なんて声も上がっているみたいだぜ。（星4評価）  なんと**ノンブラシ洗車機**があるんだ！ブラシ傷を気にせず、コーティング車も安心して洗えるぜ。 **高圧洗浄機完備**のセルフ洗車スペースがあるから、自分の手で納得いくまで綺麗にできるな。  営業時間は5:00 - 24:00だ。時間内に行ってくれよな！  ちなみに、ノーブラシ洗車機3台。 という情報もあるみたいだ。  愛車が綺麗になると気分も上がるよな！ぜひ行ってみてくれ！,34.8065266,135.3834055,05002359,05002359,05002359,05002359,05002359,05002359,05002359
76a0c28a-1811-45e5-8d66-6afe9e89dff1,洗車のジャバ 神戸玉津インター店,兵庫県神戸市西区平野町福中219-2,5:00 - 24:00,TRUE,TRUE,TRUE,FALSE,おっ、ここは神戸市にある「洗車のジャバ 神戸玉津インター店」だな！  利用者からは「深夜も空いている洗車場。スペースも広くて良いですね。サブスク利用時間が限られているので使いにくい。QRコードをかざす仕組みなど変更を期待する」なんて声も上がっているみたいだぜ。（星4評価）  なんと**ノンブラシ洗車機**があるんだ！ブラシ傷を気にせず、コーティング車も安心して洗えるぜ。 **高圧洗浄機完備**のセルフ洗車スペースがあるから、自分の手で納得いくまで綺麗にできるな。  営業時間は5:00 - 24:00だ。時間内に行ってくれよな！  ちなみに、ノーブラシ洗車機あり。 という情報もあるみたいだ。  愛車が綺麗になると気分も上がるよな！ぜひ行ってみてくれ！,34.6997144,134.982658,06302330,06302330,06302330,06302330,06302330,06302330,06302330
7739800d-b01e-4198-9a9c-37439b42d4b5,カーピカランド レインボー 高蔵寺店,愛知県春日井市中央台1-1-5,不明,FALSE,TRUE,FALSE,FALSE,おっ、ここは春日井市にある「カーピカランド レインボー 高蔵寺店」だな！  利用者からは「洗車もコインランドリーもあります。雨ならランドリー、晴れなら洗車ととても便利です。」なんて声も上がっているみたいだぜ。（星5評価）  **門型自動洗車機**があるから、手軽にサッと汚れを落としたい時にも便利だ。  営業時間は不明だ。時間内に行ってくれよな！  週末の洗車はここに決まりだな！,35.2778213,137.0490694,05002200,05002200,05002200,05002200,05002200,05002200,05002200
79db9032-c703-4469-b189-4039b069f973,洗車のジャバ 厚木三田店,神奈川県厚木市三田2926,5:00 - 24:00,TRUE,TRUE,FALSE,FALSE,おっ、ここは厚木市にある「洗車のジャバ 厚木三田店」だな！  なんと**ノンブラシ洗車機**があるんだ！ブラシ傷を気にせず、コーティング車も安心して洗えるぜ。  営業時間は5:00 - 24:00だ。時間内に行ってくれよな！  ちなみに、全自動ノーブラシ洗車機。 という情報もあるみたいだ。  近くに行ったら寄ってみてくれよな！,35.4954662,139.3435367,06002100,06002100,06002100,06002100,06002100,06002100,06002100
7a959dd5-0bed-4f90-a848-2128a2fff537,ウォッシュアイランド みつわ台店,〒264-0021 千葉県千葉市若葉区若松町５３１−８１,不明,FALSE,TRUE,TRUE,FALSE,愛車をピカピカにするなら、千葉市の「ウォッシュアイランド みつわ台店」はどうだ？  利用者からは「水➡️シャンプー➡️自動停止➡️水で600円 延長100円で十分洗浄できます。 住宅街なので早朝、夜は静かに洗車しましょう」なんて声も上がっているみたいだぜ。（星5評価）  **高圧洗浄機完備**のセルフ洗車スペースがあるから、自分の手で納得いくまで綺麗にできるな。  営業時間は不明だ。時間内に行ってくれよな！  ちなみに、全国リサーチ追加 (首都圏・東海編) という情報もあるみたいだ。  洗車ライフを楽しんでくれよな！,35.6410771,140.1356589,00000000,00000000,00000000,00000000,00000000,00000000,00000000
7c162a4b-9df3-482e-af01-fde55b8405ad,シャワーBOY 渡瀬店,静岡県浜松市中央区渡瀬町433,7:00 - 21:00,FALSE,TRUE,TRUE,FALSE,愛車をピカピカにするなら、浜松市の「シャワーBOY 渡瀬店」はどうだ？  利用者からは「最新門型洗車機と入替の告知がありました（2025.09.17予定）  人気のコイン洗車場で手入れが行き届いてます 平日でも常に誰かが居る感じ 私が行くたびにに管...」なんて声も上がっているみたいだぜ。（星4評価）  **高圧洗浄機完備**のセルフ洗車スペースがあるから、自分の手で納得いくまで綺麗にできるな。  営業時間は7:00 - 21:00だ。時間内に行ってくれよな！  ちなみに、泡ムース手洗いコース（手洗い時間8分付き）あり。 という情報もあるみたいだ。  近くに行ったら寄ってみてくれよな！,34.705645,137.7600575,07002100,07002100,07002100,07002100,07002100,07002100,07002100
7e5f1cdc-7c32-4ef5-bf2e-7f6231c01271,カーウォッシュ行船,東京都江戸川区北葛西2-10-26,24時間 (機械利用 05:00-24:00),FALSE,TRUE,TRUE,FALSE,噂の洗車場、「カーウォッシュ行船」を紹介するぜ！場所は江戸川区だ。  利用者からは「女性も利用しやすいとても親切対応のスタンドです。給油はもちろん洗車も利用します。拭きあげ洗車はとっても丁寧なので気持ちが良いです。かれこれ37年利用させていただ...」なんて声も上がっているみたいだぜ。（星5評価）  **高圧洗浄機完備**のセルフ洗車スペースがあるから、自分の手で納得いくまで綺麗にできるな。 掃除機もあるから、車内のゴミも一掃できるぞ。  しかも**24時間営業**！深夜のドライブついでや、早朝の空いている時間にゆっくり洗車できるのは最高だよな。  ちなみに、料金例: ドライブスルー 700円〜 という情報もあるみたいだ。  週末の洗車はここに決まりだな！,35.6717014,139.8568824,00000000,00000000,00000000,00000000,00000000,00000000,00000000
8014bfbd-753c-4ad3-81a9-1d18d76aa101,じゃんぼ洗車センター横浜阿久和店,〒246-0026 神奈川県横浜市瀬谷区阿久和南４丁目１２−６,不明,FALSE,TRUE,TRUE,FALSE,愛車をピカピカにするなら、横浜市の「じゃんぼ洗車センター横浜阿久和店」はどうだ？  利用者からは「バイクに洗車も可能という事なので泥だらけになった時に利用をしています。 休日は混んでいます。 バイクだと4分は長いですね、あと床が鉄板なのと前下がりなのでバイク...」なんて声も上がっているみたいだぜ。（星4評価）  **高圧洗浄機完備**のセルフ洗車スペースがあるから、自分の手で納得いくまで綺麗にできるな。  営業時間は不明だ。時間内に行ってくれよな！  ちなみに、全国リサーチ追加 (首都圏・東海編) という情報もあるみたいだ。  近くに行ったら寄ってみてくれよな！,35.4474067,139.5043489,05000159,05000159,05000159,05000159,05000159,05000159,05000159
849adebf-de4d-4f71-8205-b50b8477ddf9,洗車のジャバ 木更津朝日店,千葉県木更津市朝日3-6-16,不明,TRUE,TRUE,FALSE,FALSE,おっ、ここは木更津市にある「洗車のジャバ 木更津朝日店」だな！  なんと**ノンブラシ洗車機**があるんだ！ブラシ傷を気にせず、コーティング車も安心して洗えるぜ。  営業時間は不明だ。時間内に行ってくれよな！  洗車ライフを楽しんでくれよな！,35.386582,139.9375469,06002200,06002200,06002200,06002200,06002200,06002200,06002200
84adf8a8-9655-4194-8f31-2aeaa6f8647d,洗車のジャバ 姫路広畑店,兵庫県姫路市広畑区高浜町3-93,不明,TRUE,TRUE,FALSE,FALSE,おっ、ここは姫路市にある「洗車のジャバ 姫路広畑店」だな！  利用者からは「ここの口コミをあらかじめ読んで、小銭を沢山準備して向かいました！ 私は門型の洗車機を利用しましたが、1000円札使えました。コースも1000円のものを選んだので...」なんて声も上がっているみたいだぜ。（星5評価）  なんと**ノンブラシ洗車機**があるんだ！ブラシ傷を気にせず、コーティング車も安心して洗えるぜ。  営業時間は不明だ。時間内に行ってくれよな！  週末の洗車はここに決まりだな！,34.7983173,134.6224674,05002359,05002359,05002359,05002359,05002359,05002359,05002359
87d83942-c676-4d8a-9d80-69a4550d1d84,カーピカランドきづがわ,大阪府大阪市浪速区木津川1-7-4,不明,FALSE,TRUE,TRUE,TRUE,おっ、ここは大阪市にある「カーピカランドきづがわ」だな！  利用者からは「行きつけの洗車場です。 機械洗車が1台分。 手洗い洗車3台分。  自分は基本機械に通したくないので手洗い洗車。 時間帯によっては混んでる事があり、その際は路上で...」なんて声も上がっているみたいだぜ。（星5評価）  **高圧洗浄機完備**のセルフ洗車スペースがあるから、自分の手で納得いくまで綺麗にできるな。 嬉しいのが**水道使い放題**って点だ！バケツ洗車派にはたまらないよな。  営業時間は不明だ。時間内に行ってくれよな！  ちなみに、全国リサーチ追加 (大阪編) という情報もあるみたいだ。  洗車ライフを楽しんでくれよな！,34.6648456,135.4823955,05002359,05002359,05002359,05002359,05002359,05002359,05002359
88b40165-a83d-4c1e-bc33-eb1ac3489800,カーピカランド巽,大阪府大阪市生野区巽中2-14-1,不明,FALSE,TRUE,FALSE,FALSE,おっ、ここは大阪市にある「カーピカランド巽」だな！  利用者からは「コイン洗車場がつぶれていく中で、基調なところです。 車高の高い車でも洗えるのが、お得です。 ステップがあり、洗浄ガンが構えやすい。 洗車好きの人には、おすすめで...」なんて声も上がっているみたいだぜ。（星4評価）  **門型自動洗車機**があるから、手軽にサッと汚れを落としたい時にも便利だ。  営業時間は不明だ。時間内に行ってくれよな！  週末の洗車はここに決まりだな！,34.6485574,135.5515653,10002200,10002200,10002200,10002200,10002200,10002200,10002200
8a787fdc-8f00-41cb-99fa-8844e504246f,洗車の王国 なかもず店,大阪府堺市北区金岡町1377-6,不明,FALSE,TRUE,TRUE,FALSE,おっ、ここは堺市にある「洗車の王国 なかもず店」だな！  利用者からは「洗車の王国なかもず店は綺麗な店舗で待合室も整理整頓されていてフリードリンクのサーピスが有ります(^o^) 今回はスズキフロンクスに８年耐久のガラスコーティングを...」なんて声も上がっているみたいだぜ。（星5評価）  **高圧洗浄機完備**のセルフ洗車スペースがあるから、自分の手で納得いくまで綺麗にできるな。  営業時間は不明だ。時間内に行ってくれよな！  ちなみに、全国リサーチ追加 (大阪編) という情報もあるみたいだ。  週末の洗車はここに決まりだな！,34.5535124,135.5132362,セルフ洗車場ではない,セルフ洗車場ではない,セルフ洗車場ではない,セルフ洗車場ではない,セルフ洗車場ではない,セルフ洗車場ではない,セルフ洗車場ではない
8d13e080-9098-4446-9f09-594daffa14c0,D-Wash 富山黒瀬,富山県富山市黒瀬北町2-14-15,24時間,FALSE,TRUE,TRUE,FALSE,愛車をピカピカにするなら、富山市の「D-Wash 富山黒瀬」はどうだ？  利用者からは「最高です。手洗いブースで手軽に純水手洗い洗車が楽しめます。シャンプーやスポンジ、タオルなど、普段の洗車で使用しているお気に入りの洗車用品をもっていきましょう。 ...」なんて声も上がっているみたいだぜ。（星5評価）  **高圧洗浄機完備**のセルフ洗車スペースがあるから、自分の手で納得いくまで綺麗にできるな。  しかも**24時間営業**！深夜のドライブついでや、早朝の空いている時間にゆっくり洗車できるのは最高だよな。  ちなみに、2025年オープン予定（または済）。純水洗車場、屋根付きブース。 という情報もあるみたいだ。  洗車ライフを楽しんでくれよな！,36.6655449,137.2020321,10002000,10002000,10002000,10002000,10002000,10002000,10002000
8ed8b929-a10e-4c30-8f2b-727726dc71c8,洗車のジャバ 東大阪西堤店,大阪府東大阪市西堤本通西1-8-30,不明,TRUE,TRUE,FALSE,FALSE,噂の洗車場、「洗車のジャバ 東大阪西堤店」を紹介するぜ！場所は東大阪市だ。  利用者からは「なんか色んなコメントあるけど普通に洗車機のレベル高いぞ、撥水とか色々つけさせてもらってピカピカや ありがとう😊」なんて声も上がっているみたいだぜ。（星5評価）  なんと**ノンブラシ洗車機**があるんだ！ブラシ傷を気にせず、コーティング車も安心して洗えるぜ。  営業時間は不明だ。時間内に行ってくれよな！  近くに行ったら寄ってみてくれよな！,34.6714399,135.5791304,05002359,05002359,05002359,05002359,05002359,05002359,05002359
8ee67381-7cb3-4387-845c-bdd044b2dc2c,洗車のジャバ 神戸南別府店,兵庫県神戸市西区南別府1丁目1098,不明,TRUE,TRUE,FALSE,FALSE,おっ、ここは神戸市にある「洗車のジャバ 神戸南別府店」だな！  利用者からは「バイク洗車がしやすいです 平日は空いていて、さっと洗車できて、拭き取り場所もじゅうぶんにあり、きれいになります 100円玉と500円玉が良いでしょう」なんて声も上がっているみたいだぜ。（星4評価）  なんと**ノンブラシ洗車機**があるんだ！ブラシ傷を気にせず、コーティング車も安心して洗えるぜ。  営業時間は不明だ。時間内に行ってくれよな！  洗車ライフを楽しんでくれよな！,34.6691483,135.0194125,08002230,08002230,08002230,08002230,08002230,08002230,08002230
8f445c49-82a6-41af-9bd4-198081688492,カーピカランド長沢,〒239-0842 神奈川県横須賀市長沢６丁目４５−９,不明,FALSE,TRUE,TRUE,FALSE,愛車をピカピカにするなら、横須賀市の「カーピカランド長沢」はどうだ？  利用者からは「洗車ブース、拭き上げ場所も充実していて洗いやすいです。 トイレ、飲料自販機もあり平日はゆっくり洗車が出来ます。 蛇口からお湯も出るので冬場でも◯笑  プリペイド...」なんて声も上がっているみたいだぜ。（星5評価）  **高圧洗浄機完備**のセルフ洗車スペースがあるから、自分の手で納得いくまで綺麗にできるな。  営業時間は不明だ。時間内に行ってくれよな！  ちなみに、全国リサーチ追加 (首都圏・東海編) という情報もあるみたいだ。  近くに行ったら寄ってみてくれよな！,35.2114175,139.678376,06302230,06302230,06302230,06302230,06302230,06302230,06302230
8f888e0b-4476-42d9-9076-c3b56f9d5f47,環七大杉コイン洗車場＆ランドリー,東京都江戸川区大杉4丁目7-21,24時間 (要確認),TRUE,TRUE,TRUE,FALSE,"噂の洗車場、「環七大杉コイン洗車場＆ランドリー」を紹介するぜ！場所は江戸川区だ。  利用者からは「バイク洗車で毎度早朝に利用‼️ いつ行っても空いてて助かります。 小銭の両替機があれば文句なし。 自販機もお釣りが出ません…」なんて声も上がっているみたいだぜ。（星4評価）  なんと**ノンブラシ洗車機**があるんだ！ブラシ傷を気にせず、コーティング車も安心して洗えるぜ。 **高圧洗浄機完備**のセルフ洗車スペースがあるから、自分の手で納得いくまで綺麗にできるな。 掃除機もあるから、車内のゴミも一掃できるぞ。  しかも**24時間営業**！深夜のドライブついでや、早朝の空いている時間にゆっくり洗車できるのは最高だよな。  ちなみに、料金例: ノーブラシ洗車 1000円〜, スプレー 600円〜 という情報もあるみたいだ。  愛車が綺麗になると気分も上がるよな！ぜひ行ってみてくれ！",35.7108792,139.8798362,06002300,06002300,06002300,06002300,06002300,06002300,06002300
90536e6f-9375-4e61-85e5-5a58296749b0,SELWASHU藤美,大阪府東大阪市金岡4-15-28,不明,FALSE,TRUE,TRUE,FALSE,おっ、ここは東大阪市にある「SELWASHU藤美」だな！  **高圧洗浄機完備**のセルフ洗車スペースがあるから、自分の手で納得いくまで綺麗にできるな。  営業時間は不明だ。時間内に行ってくれよな！  ちなみに、全国リサーチ追加 (大阪編) という情報もあるみたいだ。  近くに行ったら寄ってみてくれよな！,34.6330314,135.5888453,閉業,閉業,閉業,閉業,閉業,閉業,閉業
93c4145c-03df-4a38-85a4-6acceff2f1c5,高知屋内洗車場 ウォッシングガレージ,〒781-8121 高知県高知市葛島２丁目３−１,予約制,FALSE,TRUE,TRUE,FALSE,噂の洗車場、「高知屋内洗車場 ウォッシングガレージ」を紹介するぜ！場所は高知市だ。  利用者からは「スタンドでコーティングしてもらったら新車の輝きになりました✨洗車機も拭かなくていいので楽チンでピカピカになります。」なんて声も上がっているみたいだぜ。（星5評価）  **高圧洗浄機完備**のセルフ洗車スペースがあるから、自分の手で納得いくまで綺麗にできるな。  営業時間は予約制だ。時間内に行ってくれよな！  ちなみに、屋内・冷暖房・純水完備の予約制ガレージ。 という情報もあるみたいだ。  近くに行ったら寄ってみてくれよな！,33.5588821,133.5312383,09001900,定休日,09001900,09001900,09001900,09001900,09001900
951705ec-95eb-4e26-95c9-364b25f0df8e,Kireine野洲店,滋賀県野洲市市三宅2456,24時間,TRUE,TRUE,FALSE,FALSE,おっ、ここは野洲市にある「Kireine野洲店」だな！  利用者からは「２回目の利用になります。 ノンブラシなので初回利用時には綺麗になるか不安でしたが、洗車機に入る前に予洗いができる場所があるのが良いですね。しっかり綺麗になったの...」なんて声も上がっているみたいだぜ。（星5評価）  なんと**ノンブラシ洗車機**があるんだ！ブラシ傷を気にせず、コーティング車も安心して洗えるぜ。 掃除機もあるから、車内のゴミも一掃できるぞ。  しかも**24時間営業**！深夜のドライブついでや、早朝の空いている時間にゆっくり洗車できるのは最高だよな。  ちなみに、滋賀県初のノンブラシ洗車機。コインランドリー併設。 という情報もあるみたいだ。  近くに行ったら寄ってみてくれよな！,35.0686081,136.0189718,07002200,07002200,07002200,07002200,07002200,07002200,07002200
95380e77-6729-4bf8-afcc-2f7d4a2878c4,SPLASH 'N' GO! 伊勢崎韮塚店,〒372-0813 群馬県伊勢崎市韮塚町１１８０−５,不明,FALSE,TRUE,FALSE,FALSE,おっ、ここは伊勢崎市にある「SPLASH 'N' GO! 伊勢崎韮塚店」だな！  利用者からは「インスタのリールで見て、洗車のサブスクとは画期的！と思い、興味本位で最初は1回600円でお試し利用。着いたら順番待ちの車の列ができていて、これは待ち時間かかりそ...」なんて声も上がっているみたいだぜ。（星5評価）  基本的な設備はしっかり揃っているみたいだぜ。  営業時間は不明だ。時間内に行ってくれよな！  ちなみに、トンネル型連続洗車機 という情報もあるみたいだ。  近くに行ったら寄ってみてくれよな！,36.3063067,139.1739828,09001900,09001900,09001900,09001900,09001900,09001900,09001900
95613fad-7fa4-4897-b36a-87cd2cef6239,Whitepit 紀三井寺店,和歌山県和歌山市紀三井寺539-7,24時間,FALSE,TRUE,TRUE,FALSE,おっ、ここは和歌山市にある「Whitepit 紀三井寺店」だな！  **高圧洗浄機完備**のセルフ洗車スペースがあるから、自分の手で納得いくまで綺麗にできるな。  しかも**24時間営業**！深夜のドライブついでや、早朝の空いている時間にゆっくり洗車できるのは最高だよな。  ちなみに、時間制セルフ洗車場。高圧洗浄機、純水器完備。 という情報もあるみたいだ。  洗車ライフを楽しんでくれよな！,34.1790189,135.186025,00000000,00000000,00000000,00000000,00000000,00000000,00000000
95a5985e-db59-4898-9d81-0d6a18db905e,プライベート洗車Box 須磨・長田店,神戸市長田区海運町3-6-6,6:00 - 24:00,FALSE,TRUE,TRUE,FALSE,おっ、ここはこの街にある「プライベート洗車Box 須磨・長田店」だな！  利用者からは「初めて利用させて頂きました。 私は手洗い洗車初心者で他の方を気にせず自分のペースで手洗い出来る場所を探している時に見つけました。 初心者の私には充分すぎる設備と...」なんて声も上がっているみたいだぜ。（星5評価）  **高圧洗浄機完備**のセルフ洗車スペースがあるから、自分の手で納得いくまで綺麗にできるな。 掃除機もあるから、車内のゴミも一掃できるぞ。  営業時間は6:00 - 24:00だ。時間内に行ってくれよな！  ちなみに、完全個室予約制。純水器、フォームガン使い放題。 という情報もあるみたいだ。  洗車ライフを楽しんでくれよな！,34.652163,135.1385149,06002359,06002359,06002359,06002359,06002359,06002359,06002359
96a537dc-8068-476c-9ede-6ba3f3bcf01d,カーピカランド レインボー 多加木店,愛知県一宮市多加木2-11-3,不明,FALSE,TRUE,FALSE,FALSE,噂の洗車場、「カーピカランド レインボー 多加木店」を紹介するぜ！場所は一宮市だ。  利用者からは「高圧洗浄機洗車機×4台 ゲート式洗車機×2台 掃除機×4台 自販機×2台 高所拭きあげ用の踏み台が数台 洗車待ち待機所1台分 あります。 出入口は大通りからと裏...」なんて声も上がっているみたいだぜ。（星5評価）  **門型自動洗車機**があるから、手軽にサッと汚れを落としたい時にも便利だ。  営業時間は不明だ。時間内に行ってくれよな！  愛車が綺麗になると気分も上がるよな！ぜひ行ってみてくれ！,35.276259,136.812573,00000000,00000000,00000000,00000000,00000000,00000000,00000000
9791c99c-e337-458f-a912-e59ddbcf1648,洗車のジャバ 八王子松木店,東京都八王子市松木18-26,不明,TRUE,TRUE,FALSE,FALSE,噂の洗車場、「洗車のジャバ 八王子松木店」を紹介するぜ！場所は八王子市だ。  なんと**ノンブラシ洗車機**があるんだ！ブラシ傷を気にせず、コーティング車も安心して洗えるぜ。  営業時間は不明だ。時間内に行ってくれよな！  近くに行ったら寄ってみてくれよな！,35.6255181,139.3925723,06002359,06002359,06002359,06002359,06002359,06002359,06002359
97e5a1c7-ce3c-47f1-983b-fb7b092ba590,カーピカランドぱる,岐阜県大垣市三本木3-44,不明,FALSE,TRUE,FALSE,FALSE,噂の洗車場、「カーピカランドぱる」を紹介するぜ！場所は大垣市だ。  利用者からは「ここは、裏側にも洗車場があります。 だいたい開いているので、のんびり と洗車できます。 また、純水洗車機もあり、便利です。」なんて声も上がっているみたいだぜ。（星4評価）  **門型自動洗車機**があるから、手軽にサッと汚れを落としたい時にも便利だ。  営業時間は不明だ。時間内に行ってくれよな！  洗車ライフを楽しんでくれよな！,35.3593013,136.6134417,06002200,06002200,06002200,06002200,06002200,06002200,06002200
98901dd6-9902-474a-9bdd-b173844c5559,シャワーランド若林,静岡県浜松市南区若林町2761-3,不明,FALSE,TRUE,FALSE,FALSE,愛車をピカピカにするなら、浜松市の「シャワーランド若林」はどうだ？  利用者からは「水洗い500円、シャンプーで600円。 500円.100円玉が使えます。  高速走った後の塩化カリウムを落とすために立ち寄りましたが、吹上スペースは狭い＆洗車機...」なんて声も上がっているみたいだぜ。（星4評価）  基本的な設備はしっかり揃っているみたいだぜ。  営業時間は不明だ。時間内に行ってくれよな！  ちなみに、「シャワーBOY」系列 という情報もあるみたいだ。  愛車が綺麗になると気分も上がるよな！ぜひ行ってみてくれ！,34.7102752,137.7274159,06002200,06002200,06002200,06002200,06002200,06002200,06002200
9d79f638-c50a-476d-92ca-8b9b7cc7faf2,洗車のジャバ 姫路中地店,兵庫県姫路市飾磨区構5-154-1,不明,TRUE,TRUE,FALSE,FALSE,愛車をピカピカにするなら、姫路市の「洗車のジャバ 姫路中地店」はどうだ？  利用者からは「水圧で洗車するタイプです。 お金を投入すると全自動で洗車をはじめます。 よく洗車する方は綺麗になると思いますが、 普段から白くなるまで洗車しない方は 他店の物理...」なんて声も上がっているみたいだぜ。（星4評価）  なんと**ノンブラシ洗車機**があるんだ！ブラシ傷を気にせず、コーティング車も安心して洗えるぜ。  営業時間は不明だ。時間内に行ってくれよな！  洗車ライフを楽しんでくれよな！,34.8129412,134.6683378,05002359,05002359,05002359,05002359,05002359,05002359,05002359
9dbe0dac-affe-400a-a9ec-7072eadb0799,CHIKKO TENANTO STORE,岡山県岡山市南区（詳細要確認）,不明,FALSE,TRUE,TRUE,FALSE,おっ、ここは岡山市にある「CHIKKO TENANTO STORE」だな！  利用者からは「事業用物件専門の不動産屋 店舗や倉庫、事務所の賃貸、売買、コンサルタント事業に加え、専属のデザイナーもおられるので、出店閉店を考えてる時には頼もしい存在となるで...」なんて声も上がっているみたいだぜ。（星4評価）  **高圧洗浄機完備**のセルフ洗車スペースがあるから、自分の手で納得いくまで綺麗にできるな。  営業時間は不明だ。時間内に行ってくれよな！  ちなみに、純水手洗い洗車（屋内）。 という情報もあるみたいだ。  愛車が綺麗になると気分も上がるよな！ぜひ行ってみてくれ！,34.6216168,133.9082387,不明、削除で,不明、削除で,不明、削除で,不明、削除で,不明、削除で,不明、削除で,不明、削除で
9ec51c38-83a3-4b82-a959-4f55c9baa6bd,旭油業コイン洗車場,〒336-0963 埼玉県さいたま市緑区大門１７３０,不明,FALSE,TRUE,TRUE,FALSE,愛車をピカピカにするなら、さいたま市の「旭油業コイン洗車場」はどうだ？  利用者からは「不思議な名前の コイン洗車場。  隣のコスモ石油（スタンド）と 隣接しており 一応スタンド側から一方通行に なっている。  コスモには洗車機のみだが コイン洗車...」なんて声も上がっているみたいだぜ。（星5評価）  **高圧洗浄機完備**のセルフ洗車スペースがあるから、自分の手で納得いくまで綺麗にできるな。  営業時間は不明だ。時間内に行ってくれよな！  ちなみに、全国リサーチ追加 (首都圏・東海編) という情報もあるみたいだ。  愛車が綺麗になると気分も上がるよな！ぜひ行ってみてくれ！,35.883843,139.7307153,07002100,07002100,07002100,07002100,07002100,07002100,07002100
a0349e42-81ba-4554-911c-216d3b8ece55,D-Wash 中環南茨木,大阪府茨木市沢良宜西2-6-15,不明,FALSE,TRUE,FALSE,FALSE,噂の洗車場、「D-Wash 中環南茨木」を紹介するぜ！場所は茨木市だ。  利用者からは「車が大きくなり自宅で洗車が厳しくなってしまったので利用しました。 自宅からは少し離れていますが 完全予約制で手洗い純水で30分800円は安いと感じました。 近所...」なんて声も上がっているみたいだぜ。（星4評価）  基本的な設備はしっかり揃っているみたいだぜ。  営業時間は不明だ。時間内に行ってくれよな！  近くに行ったら寄ってみてくれよな！,34.7972831,135.5662592,00000000,00000000,00000000,00000000,00000000,00000000,00000000
a14d75e5-3fcf-4ab6-a3b4-cc0b03cb1b88,洗車のジャバ 枚方招提南店,大阪府枚方市招提南町3-23,不明,TRUE,TRUE,FALSE,FALSE,愛車をピカピカにするなら、枚方市の「洗車のジャバ 枚方招提南店」はどうだ？  なんと**ノンブラシ洗車機**があるんだ！ブラシ傷を気にせず、コーティング車も安心して洗えるぜ。  営業時間は不明だ。時間内に行ってくれよな！  近くに行ったら寄ってみてくれよな！,34.8298728,135.6872857,05002359,05002359,05002359,05002359,05002359,05002359,05002359
a25bedf3-7746-4e21-bf28-523c3b6138cc,カーピカランド レインボー 開明店,愛知県一宮市開明郷東28-1,不明,FALSE,TRUE,FALSE,FALSE,噂の洗車場、「カーピカランド レインボー 開明店」を紹介するぜ！場所は一宮市だ。  利用者からは「開明にある  洗車場です。  休日には沢山の人が洗車に来てます。」なんて声も上がっているみたいだぜ。（星4評価）  **門型自動洗車機**があるから、手軽にサッと汚れを落としたい時にも便利だ。  営業時間は不明だ。時間内に行ってくれよな！  洗車ライフを楽しんでくれよな！,35.3162515,136.7719954,00000000,00000000,00000000,00000000,00000000,00000000,00000000
a2e9c58f-2b10-4fa8-92e9-ef6f1b80a777,キグナスセルフ雲南,〒690-2403 島根県雲南市三刀屋町下熊谷１７３２−２,不明,FALSE,TRUE,FALSE,FALSE,噂の洗車場、「キグナスセルフ雲南」を紹介するぜ！場所は雲南市だ。  利用者からは「広島方面に向かうならここで給油しておこう。ここからさきは特に夜間は営業時間外が多く、また、中国道を使う場合もそもそもスタンドじたい少ないから要注意！中国道はカー...」なんて声も上がっているみたいだぜ。（星5評価）  **門型自動洗車機**があるから、手軽にサッと汚れを落としたい時にも便利だ。  営業時間は不明だ。時間内に行ってくれよな！  ちなみに、門型洗車機にノンブラシコースあり。 という情報もあるみたいだ。  週末の洗車はここに決まりだな！,35.3077562,132.9006125,00000000,00000000,00000000,00000000,00000000,00000000,00000000
a35bb2b2-f4d9-453b-ad8d-866a4b52bd6a,D-Wash 南町田,〒194-0004 東京都町田市鶴間６丁目１−３２,不明,FALSE,TRUE,FALSE,FALSE,噂の洗車場、「D-Wash 南町田」を紹介するぜ！場所は町田市だ。  利用者からは「SNSで見つけて体験してみたく行ってきました。 オール純水で屋根付き、ブロワー、車内用クリーナー、そしてケルヒャーが使い放題という今までにない夢のような洗車場で...」なんて声も上がっているみたいだぜ。（星4評価）  基本的な設備はしっかり揃っているみたいだぜ。  営業時間は不明だ。時間内に行ってくれよな！  ちなみに、ドライブスルー・純水洗車 という情報もあるみたいだ。  週末の洗車はここに決まりだな！,35.546656,139.4385568,00000000,00000000,00000000,00000000,00000000,00000000,00000000
a3e51057-0016-4819-97b2-f1a20b08f206,洗車のジャバ 藤井寺店,大阪府藤井寺市沢田1-14-6,不明,TRUE,TRUE,FALSE,FALSE,噂の洗車場、「洗車のジャバ 藤井寺店」を紹介するぜ！場所は藤井寺市だ。  なんと**ノンブラシ洗車機**があるんだ！ブラシ傷を気にせず、コーティング車も安心して洗えるぜ。  営業時間は不明だ。時間内に行ってくれよな！  週末の洗車はここに決まりだな！,34.5718014,135.6058034,05000100,05000100,05000100,05000100,05000100,05000100,05000100
a50ba95f-056b-4ed3-a3fc-e6a47ba9b736,松村物産 カーロ桜田店,石川県金沢市桜田町2-13,8:00 - 20:00,TRUE,TRUE,FALSE,FALSE,おっ、ここは金沢市にある「松村物産 カーロ桜田店」だな！  利用者からは「ここはノンブラシ、ブラシ洗車が出来て屋根付の駐車場で拭き上げが出来て最高です！（ただしタイヤブラシや道具持ち込みは禁止みたいです）さらに室内掃除機や拭き上げで取...」なんて声も上がっているみたいだぜ。（星5評価）  なんと**ノンブラシ洗車機**があるんだ！ブラシ傷を気にせず、コーティング車も安心して洗えるぜ。 掃除機もあるから、車内のゴミも一掃できるぞ。  営業時間は8:00 - 20:00だ。時間内に行ってくれよな！  ちなみに、2種類のノンブラシ洗車機あり。屋根付き拭き上げ場。 という情報もあるみたいだ。  洗車ライフを楽しんでくれよな！,36.5775351,136.6207131,09001800,09001800,09001800,09001800,09001800,09001800,09001800
a62ab56e-0137-43cc-90aa-a367a792244d,セルフウォッシュ富士,大阪府大阪市此花区酉島5-6-26,不明,FALSE,TRUE,TRUE,FALSE,噂の洗車場、「セルフウォッシュ富士」を紹介するぜ！場所は大阪市だ。  利用者からは「最新の価格表貼っておきます。(2023/09/07撮影) 皆さんが書かれている通り、ノーブラシなので汚れは落ちにくいですが、傷の心配が無いので安心です！ある程度...」なんて声も上がっているみたいだぜ。（星4評価）  **高圧洗浄機完備**のセルフ洗車スペースがあるから、自分の手で納得いくまで綺麗にできるな。 **門型自動洗車機**があるから、手軽にサッと汚れを落としたい時にも便利だ。  営業時間は不明だ。時間内に行ってくれよな！  ちなみに、門型2台、屋根付きスプレー1台。 という情報もあるみたいだ。  近くに行ったら寄ってみてくれよな！,34.6822204,135.4375985,06002300,06002300,06002300,06002300,06002300,06002300,06002300
a6bad098-72fe-4a1f-b2e9-840ea7bedc29,洗車のジャバ 高崎インター店,群馬県高崎市矢島町414-5,不明,TRUE,TRUE,FALSE,FALSE,愛車をピカピカにするなら、高崎市の「洗車のジャバ 高崎インター店」はどうだ？  利用者からは「ノンブラシの洗車屋さん 値段もお手頃」なんて声も上がっているみたいだぜ。（星5評価）  なんと**ノンブラシ洗車機**があるんだ！ブラシ傷を気にせず、コーティング車も安心して洗えるぜ。  営業時間は不明だ。時間内に行ってくれよな！  愛車が綺麗になると気分も上がるよな！ぜひ行ってみてくれ！,36.3379738,139.0513449,05002300,05002300,05002300,05002300,05002300,05002300,05002300
a6d450a7-f6f2-4fd7-8d7c-d04dd04caadd,ハマちゃん,千葉県船橋市,不明,FALSE,TRUE,TRUE,FALSE,愛車をピカピカにするなら、船橋市の「ハマちゃん」はどうだ？  利用者からは「ゆめ牧場の中のお食事処は小さい子を連れて落ち着いて食べれる雰囲気のところがあまりなく 帰りに 食べて帰ろうという事になり こちらのお店が検索してヒットしました ...」なんて声も上がっているみたいだぜ。（星5評価）  **高圧洗浄機完備**のセルフ洗車スペースがあるから、自分の手で納得いくまで綺麗にできるな。  営業時間は不明だ。時間内に行ってくれよな！  ちなみに、全国リサーチ追加 (首都圏・東海編) という情報もあるみたいだ。  近くに行ったら寄ってみてくれよな！,35.6945485,139.9827277,不明、削除で,不明、削除で,不明、削除で,不明、削除で,不明、削除で,不明、削除で,不明、削除で
a901373a-b7ab-4d9d-a3fd-94685fa9d59d,CarWash APPLE,長野県長野市篠ノ井布施五明339,6:00 - 21:00,FALSE,TRUE,TRUE,FALSE,愛車をピカピカにするなら、長野市の「CarWash APPLE」はどうだ？  利用者からは「どの洗車機か分かりませんが、いちばん高いコースを選んでも泡が出ないぼったくり洗車機が存在します。運試しにやってみて下さい。 それ以外は普通の洗車場です。」なんて声も上がっているみたいだぜ。（星5評価）  **高圧洗浄機完備**のセルフ洗車スペースがあるから、自分の手で納得いくまで綺麗にできるな。 掃除機もあるから、車内のゴミも一掃できるぞ。  営業時間は6:00 - 21:00だ。時間内に行ってくれよな！  ちなみに、高圧スプレー4台。ノンブラシ手洗いに適した広々空間。 という情報もあるみたいだ。  愛車が綺麗になると気分も上がるよな！ぜひ行ってみてくれ！,36.5809243,138.1275073,営業時間不明,営業時間不明,営業時間不明,営業時間不明,営業時間不明,営業時間不明,営業時間不明
ab0bf6a7-80af-403b-bf50-d3a8461bed7e,カーウォッシュSUN,〒412-0026 静岡県御殿場市東田中１丁目１１−１２,不明,FALSE,TRUE,TRUE,FALSE,おっ、ここは御殿場市にある「カーウォッシュSUN」だな！  利用者からは「立地が良い！！ 自分が調べた感じ、御殿場唯一のコイン洗車場。富士スピードウェイも近くて、20分ほどの距離。 立地に価値があるコイン洗車場㊗️  富士スピードウェ...」なんて声も上がっているみたいだぜ。（星5評価）  **高圧洗浄機完備**のセルフ洗車スペースがあるから、自分の手で納得いくまで綺麗にできるな。  営業時間は不明だ。時間内に行ってくれよな！  ちなみに、全国リサーチ追加 (首都圏・東海編) という情報もあるみたいだ。  週末の洗車はここに決まりだな！,35.3087683,138.9347872,06302000,06302000,06302000,06302000,06302000,06302000,06302000
ac8938c2-b73f-4dd4-85cb-20a914e9879e,Whitepit 三谷店,愛知県蒲郡市三谷北通1-90,不明,FALSE,TRUE,FALSE,FALSE,愛車をピカピカにするなら、蒲郡の「Whitepit 三谷店」はどうだ？  利用者からは「キーパーを施工していますので、気軽に洗車できて綺麗になりました。 値段も手洗い洗車をキーパー店にお願いすると高い、コスパが良いです。」なんて声も上がっているみたいだぜ。（星5評価）  基本的な設備はしっかり揃っているみたいだぜ。  営業時間は不明だ。時間内に行ってくれよな！  ちなみに、時間制セルフ洗車 という情報もあるみたいだ。  洗車ライフを楽しんでくれよな！,34.8182155,137.2514261,05002359,05002359,05002359,05002359,05002359,05002359,05002359
aebab8e0-7506-4339-bd91-ba977775170d,アイウォッシュパーク大島,〒254-0001 神奈川県平塚市大島８５１−１,不明,FALSE,TRUE,TRUE,FALSE,噂の洗車場、「アイウォッシュパーク大島」を紹介するぜ！場所は相模原市だ。  利用者からは「最近貴重なコイン洗車場です。近くにあって良かった！」なんて声も上がっているみたいだぜ。（星5評価）  **高圧洗浄機完備**のセルフ洗車スペースがあるから、自分の手で納得いくまで綺麗にできるな。  営業時間は不明だ。時間内に行ってくれよな！  ちなみに、全国リサーチ追加 (首都圏・東海編) という情報もあるみたいだ。  愛車が綺麗になると気分も上がるよな！ぜひ行ってみてくれ！,35.5737437,139.3177632,営業時間不明,営業時間不明,営業時間不明,営業時間不明,営業時間不明,営業時間不明,営業時間不明
af0318e4-16a2-4ecc-b533-0df43edcf803,洗車のジャバ 住之江店,大阪市住之江区平林南2-4-63,不明,TRUE,TRUE,FALSE,FALSE,おっ、ここはこの街にある「洗車のジャバ 住之江店」だな！  利用者からは「広くて使いやすい＼(^_^)／ 掃除機もたくさんあっていい☆ バイクを洗うところもある。 タオルとかも豊富においてある。」なんて声も上がっているみたいだぜ。（星5評価）  なんと**ノンブラシ洗車機**があるんだ！ブラシ傷を気にせず、コーティング車も安心して洗えるぜ。  営業時間は不明だ。時間内に行ってくれよな！  週末の洗車はここに決まりだな！,34.6077973,135.4580068,05002359,05002359,05002359,05002359,05002359,05002359,05002359
b42e329e-e37f-4827-abec-77373b5f39a6,JOYWASH PARK 青森浜館,〒030-0947 青森県青森市浜館間瀬３６−６,不明,TRUE,TRUE,FALSE,FALSE,おっ、ここは青森市にある「JOYWASH PARK 青森浜館」だな！  利用者からは「今時数少ないセルフ手洗い洗車ができる優良店。手洗い洗車できるってだけでもう優良です。しかもノンブラシ洗車機もある！お高いコーティングしてる車にはこれありがたいよ...」なんて声も上がっているみたいだぜ。（星4評価）  なんと**ノンブラシ洗車機**があるんだ！ブラシ傷を気にせず、コーティング車も安心して洗えるぜ。  営業時間は不明だ。時間内に行ってくれよな！  ちなみに、屋内洗車場、ノンブラシ洗車機あり。 という情報もあるみたいだ。  近くに行ったら寄ってみてくれよな！,40.8077778,140.7938821,04000200,04000200,04000200,04000200,04000200,04000200,04000200
b5055cfe-2f50-43c1-a7d8-8bac34862156,シャワーランド カタコ,〒992-0024 山形県米沢市東大通３丁目２,不明,TRUE,TRUE,FALSE,FALSE,愛車をピカピカにするなら、米沢市の「シャワーランド カタコ」はどうだ？  利用者からは「水洗い@200円は最安値。 時間もやや短いけど十分。ただ、吹上げ場所は4台でいっぱいかな。」なんて声も上がっているみたいだぜ。（星4評価）  なんと**ノンブラシ洗車機**があるんだ！ブラシ傷を気にせず、コーティング車も安心して洗えるぜ。  営業時間は不明だ。時間内に行ってくれよな！  ちなみに、水圧ノンブラシ洗車機あり。 という情報もあるみたいだ。  愛車が綺麗になると気分も上がるよな！ぜひ行ってみてくれ！,37.9223201,140.1167445,06002000,06002000,06002000,06002000,06002000,06002000,06002000
b5310e08-d542-453a-abd8-e4075a7a1561,キグナスセルフユーエス松江,〒690-0045 島根県松江市乃白町４１６−１ キグナスセルフ松江ＳＳ,不明,FALSE,TRUE,FALSE,FALSE,噂の洗車場、「キグナスセルフユーエス松江」を紹介するぜ！場所は松江市だ。  利用者からは「消毒を行ってから次の給油となっているので感染症対策をとられています。あと、LINEで初回のみ友達になると１ヶ月くらい？何回も使える５円引きが使えるのでかなり安い...」なんて声も上がっているみたいだぜ。（星4評価）  **門型自動洗車機**があるから、手軽にサッと汚れを落としたい時にも便利だ。  営業時間は不明だ。時間内に行ってくれよな！  ちなみに、門型洗車機にノンブラシコースあり。 という情報もあるみたいだ。  洗車ライフを楽しんでくれよな！,35.4681908,133.0484055,00000000,00000000,00000000,00000000,00000000,00000000,00000000
b6367b45-79cd-407f-821d-02591df13fc8,カーピカランド南吹田,大阪府吹田市南吹田1-20,5:00 - 22:00,FALSE,TRUE,TRUE,FALSE,噂の洗車場、「カーピカランド南吹田」を紹介するぜ！場所は吹田市だ。  利用者からは「両替機ありますが、1000円→100円のみ。 お札→お札の両替機はありません。洗車機は全て100円硬貨使用だけ。トイレありません。近くにコンビニなし。下記追記訂...」なんて声も上がっているみたいだぜ。（星4評価）  **高圧洗浄機完備**のセルフ洗車スペースがあるから、自分の手で納得いくまで綺麗にできるな。  営業時間は5:00 - 22:00だ。時間内に行ってくれよな！  ちなみに、ユーザー指摘による追加 という情報もあるみたいだ。  週末の洗車はここに決まりだな！,34.7496369,135.5103165,閉業,閉業,閉業,閉業,閉業,閉業,閉業
b80ead32-21ab-45dc-8d6a-0728dca5353e,洗車のジャバ 柏手賀の杜店,千葉県柏市箕輪字前田116-1,不明,TRUE,TRUE,FALSE,FALSE,おっ、ここは柏市にある「洗車のジャバ 柏手賀の杜店」だな！  利用者からは「トイレが設置されておりしかも綺麗。混んで欲しくは無いですがおもてなしの心にはまいりました。」なんて声も上がっているみたいだぜ。（星5評価）  なんと**ノンブラシ洗車機**があるんだ！ブラシ傷を気にせず、コーティング車も安心して洗えるぜ。  営業時間は不明だ。時間内に行ってくれよな！  愛車が綺麗になると気分も上がるよな！ぜひ行ってみてくれ！,35.8528733,140.0200487,07002200,07002200,07002200,07002200,07002200,07002200,07002200
ba454490-ad5e-4233-abee-33d159a183da,I-Wash Park 洗車ビレッジ 春日山,新潟県上越市春日山町2-4-19,7:00 - 22:00,TRUE,TRUE,FALSE,FALSE,おっ、ここは上越市にある「I-Wash Park 洗車ビレッジ 春日山」だな！  なんと**ノンブラシ洗車機**があるんだ！ブラシ傷を気にせず、コーティング車も安心して洗えるぜ。  営業時間は7:00 - 22:00だ。時間内に行ってくれよな！  ちなみに、ノンブラシ洗車機あり。 という情報もあるみたいだ。  洗車ライフを楽しんでくれよな！,37.1461227,138.2251376,営業時間不明,営業時間不明,営業時間不明,営業時間不明,営業時間不明,営業時間不明,営業時間不明
bdd33667-bc2e-42e9-83d1-08872affd9a9,シャワーメイト花小金井,東京都小平市花小金井7-11,6:00 - 21:00,TRUE,TRUE,FALSE,FALSE,噂の洗車場、「シャワーメイト花小金井」を紹介するぜ！場所は小平市だ。  利用者からは「昔から利用してます。 土日は混んでるので最近は平日利用が多めです。 2022/11/15から値上げの告知が出ていましたが このご時世仕方ないですね。 マンション...」なんて声も上がっているみたいだぜ。（星5評価）  なんと**ノンブラシ洗車機**があるんだ！ブラシ傷を気にせず、コーティング車も安心して洗えるぜ。  営業時間は6:00 - 21:00だ。時間内に行ってくれよな！  ちなみに、水圧のみのノンブラシ洗車。 という情報もあるみたいだ。  洗車ライフを楽しんでくれよな！,35.7284467,139.5022719,07302000,07302000,07302000,07302000,07302000,07302000,07302000
be48d59f-54f1-4160-ac63-84b10df79fa7,カーピカランド 中丸,神奈川県相模原市南区下溝236,不明,FALSE,TRUE,FALSE,FALSE,愛車をピカピカにするなら、相模原市の「カーピカランド 中丸」はどうだ？  利用者からは「土曜日と、平日に利用させて頂きましたが、土曜はやはり混雑しています。平日はガラガラでノンビリと洗車できました。水道も無料で使えます。  追記 冬季期間の早朝夜間...」なんて声も上がっているみたいだぜ。（星4評価）  **門型自動洗車機**があるから、手軽にサッと汚れを落としたい時にも便利だ。  営業時間は不明だ。時間内に行ってくれよな！  週末の洗車はここに決まりだな！,35.5354943,139.3752809,05002200,05002200,05002200,05002200,05002200,05002200,05002200
c0533e2b-9838-4dc1-b68b-67ed222d2bde,カーピカランド楠,愛知県名古屋市北区若鶴町342,不明,FALSE,TRUE,FALSE,FALSE,愛車をピカピカにするなら、名古屋市の「カーピカランド楠」はどうだ？  利用者からは「スチーム洗車をしたくてGoogle Mapで調べて行ってきました。 到着して洗車ブースに車を入れて長靴へ履き替え洗車の準備をしていたら、管理人さんが詰所から出て...」なんて声も上がっているみたいだぜ。（星5評価）  **門型自動洗車機**があるから、手軽にサッと汚れを落としたい時にも便利だ。  営業時間は不明だ。時間内に行ってくれよな！  近くに行ったら寄ってみてくれよな！,35.2322284,136.9190127,07002000,07002000,07002000,07002000,07002000,07002000,07002000
c1b01957-1603-4c3b-b5b8-34048af3d7a3,カーピカランドK2,大阪府大阪市平野区喜連西5-3,9:00 - 19:00,FALSE,TRUE,TRUE,FALSE,おっ、ここは大阪市にある「カーピカランドK2」だな！  利用者からは「設備は新しくないが、使い勝手は良い。  戦車料金は安い方で、よく利用しています。高圧洗浄機である程度の汚れも落ちますし、ブローがあるので、洗車後の拭き上げもかな...」なんて声も上がっているみたいだぜ。（星4評価）  **高圧洗浄機完備**のセルフ洗車スペースがあるから、自分の手で納得いくまで綺麗にできるな。  営業時間は9:00 - 19:00だ。時間内に行ってくれよな！  ちなみに、手洗いスプレー洗車専門。 という情報もあるみたいだ。  近くに行ったら寄ってみてくれよな！,34.6147045,135.5484143,06000100,06000100,06000100,06000100,06000100,06000100,06000100
c30d9f69-0c4a-490f-bf3d-214b7a4ec73d,洗車のジャバ 横浜本郷台店,神奈川県横浜市栄区小菅ケ谷4-28-9,不明,TRUE,TRUE,FALSE,FALSE,噂の洗車場、「洗車のジャバ 横浜本郷台店」を紹介するぜ！場所は横浜市だ。  利用者からは「ブラシが無い洗車機ということで試してみました。今回はあまり時間の余裕が無かったので自動の標準コースで洗車。 季節柄花粉でまだらになっていた上、水垢も結構ついて居...」なんて声も上がっているみたいだぜ。（星4評価）  なんと**ノンブラシ洗車機**があるんだ！ブラシ傷を気にせず、コーティング車も安心して洗えるぜ。  営業時間は不明だ。時間内に行ってくれよな！  週末の洗車はここに決まりだな！,35.3790999,139.553313,05002359,05002359,05002359,05002359,05002359,05002359,05002359
c4294832-4522-414d-9962-114b8b5e3179,コイン洗車場 夢洗遊シャワシャワ,和歌山県岩出市森118-1,不明,TRUE,TRUE,TRUE,FALSE,愛車をピカピカにするなら、岩出市の「コイン洗車場 夢洗遊シャワシャワ」はどうだ？  利用者からは「水洗いは100円でした！ワックス洗車で600円✨凄く安いと思います🌟タオルは無料で貸し出ししてくれるので手ブラ洗車が出来ます♪掃除機やマット洗浄もあったので是...」なんて声も上がっているみたいだぜ。（星5評価）  なんと**ノンブラシ洗車機**があるんだ！ブラシ傷を気にせず、コーティング車も安心して洗えるぜ。 **高圧洗浄機完備**のセルフ洗車スペースがあるから、自分の手で納得いくまで綺麗にできるな。  営業時間は不明だ。時間内に行ってくれよな！  ちなみに、高圧ジェットによるノンブラシ洗車機あり。 という情報もあるみたいだ。  愛車が綺麗になると気分も上がるよな！ぜひ行ってみてくれ！,34.2702421,135.3097635,営業時間不明,営業時間不明,営業時間不明,営業時間不明,営業時間不明,営業時間不明,営業時間不明
c5627eb2-3a21-407d-bced-ada7a2c9eec8,コイン洗車場セルコ,〒742-0033 山口県柳井市新庄１０９５−１,不明,FALSE,TRUE,TRUE,FALSE,おっ、ここは柳井市にある「コイン洗車場セルコ」だな！  利用者からは「ここ、ホント揃ってる。 お米もつけるし、洗車もできる。 ちょい疲れたら椅子もある。 後自動洗車機がある。 これは嬉しい😆」なんて声も上がっているみたいだぜ。（星5評価）  **高圧洗浄機完備**のセルフ洗車スペースがあるから、自分の手で納得いくまで綺麗にできるな。 **門型自動洗車機**があるから、手軽にサッと汚れを落としたい時にも便利だ。  営業時間は不明だ。時間内に行ってくれよな！  ちなみに、最新門型洗車機あり（要機能確認）。 という情報もあるみたいだ。  近くに行ったら寄ってみてくれよな！,33.9638862,132.1016377,00000000,00000000,00000000,00000000,00000000,00000000,00000000
c595640f-15c4-4fc5-a46f-bf2de1fe8882,SPLASH 'N' GO! 足利緑町店,〒326-0816 栃木県足利市緑町２丁目23−３,不明,FALSE,TRUE,FALSE,FALSE,愛車をピカピカにするなら、足利市の「SPLASH 'N' GO! 足利緑町店」はどうだ？  利用者からは「2024年4月にオープンした栃木初の店舗です。 敷地が広いので混んでいてもある程度は台数が入るので、道路を塞ぐ可能性は低いと思います。拭きあげスペースも広いので...」なんて声も上がっているみたいだぜ。（星5評価）  基本的な設備はしっかり揃っているみたいだぜ。  営業時間は不明だ。時間内に行ってくれよな！  ちなみに、トンネル型連続洗車機 という情報もあるみたいだ。  愛車が綺麗になると気分も上がるよな！ぜひ行ってみてくれ！,36.3340952,139.4351628,09001900,定休日,09001900,09001900,09001900,09001900,09001900
c65f6acd-a01b-4f87-8813-abcaa962f96d,ウォッシュザウルス新大阪,大阪府大阪市淀川区宮原2-1,24時間,FALSE,TRUE,TRUE,FALSE,愛車をピカピカにするなら、大阪市の「ウォッシュザウルス新大阪」はどうだ？  利用者からは「水洗いだけなら300円！１往復 格安　洗車場！ お勧めです！ ブラシの水洗いは、クオリティー良し 水洗い＋シャンプー　500円 水洗い　2往復  500円  格...」なんて声も上がっているみたいだぜ。（星5評価）  **高圧洗浄機完備**のセルフ洗車スペースがあるから、自分の手で納得いくまで綺麗にできるな。 **門型自動洗車機**があるから、手軽にサッと汚れを落としたい時にも便利だ。  しかも**24時間営業**！深夜のドライブついでや、早朝の空いている時間にゆっくり洗車できるのは最高だよな。  ちなみに、24時間営業。洗車機2台。 という情報もあるみたいだ。  週末の洗車はここに決まりだな！,34.7387545,135.5023618,※3db720e3-ee5a-4a22-b995-e8807ff5ffdeと重複,※3db720e3-ee5a-4a22-b995-e8807ff5ffdeと重複,※3db720e3-ee5a-4a22-b995-e8807ff5ffdeと重複,※3db720e3-ee5a-4a22-b995-e8807ff5ffdeと重複,※3db720e3-ee5a-4a22-b995-e8807ff5ffdeと重複,※3db720e3-ee5a-4a22-b995-e8807ff5ffdeと重複,※3db720e3-ee5a-4a22-b995-e8807ff5ffdeと重複
cae98570-4c99-48b4-ab27-9de6ce0398f8,洗車のジャバ 八尾店,大阪府八尾市高美町6-8-4,不明,TRUE,TRUE,FALSE,FALSE,愛車をピカピカにするなら、八尾市の「洗車のジャバ 八尾店」はどうだ？  利用者からは「スタッフの方が一生懸命にお仕事をされているのが印象的でした。 対応も丁寧にして頂いたので良いお店だと思います。またよろしくお願いします。」なんて声も上がっているみたいだぜ。（星5評価）  なんと**ノンブラシ洗車機**があるんだ！ブラシ傷を気にせず、コーティング車も安心して洗えるぜ。  営業時間は不明だ。時間内に行ってくれよな！  週末の洗車はここに決まりだな！,34.6127629,135.6100661,05002359,05002359,05002359,05002359,05002359,05002359,05002359
cd2af35f-b9cb-4bb8-ac6f-5a675173114b,Newカーピカランド住之江,大阪府大阪市住之江区新北島3-3-19,不明,FALSE,TRUE,TRUE,FALSE,噂の洗車場、「Newカーピカランド住之江」を紹介するぜ！場所は大阪市だ。  **高圧洗浄機完備**のセルフ洗車スペースがあるから、自分の手で納得いくまで綺麗にできるな。  営業時間は不明だ。時間内に行ってくれよな！  ちなみに、全国リサーチ追加 (大阪編) という情報もあるみたいだ。  愛車が綺麗になると気分も上がるよな！ぜひ行ってみてくれ！,34.6079091,135.4667746,不明、削除で,不明、削除で,不明、削除で,不明、削除で,不明、削除で,不明、削除で,不明、削除で
cda01a67-fb64-4d3d-aa3d-0f0aa55caf95,カーピカランド東八田,大阪府堺市中区東八田225,24時間,FALSE,TRUE,TRUE,FALSE,おっ、ここは堺市にある「カーピカランド東八田」だな！  利用者からは「洗車機と高圧洗浄機、掃除機、トイレも有る。温水、空気入れ、エアダスター、オゾン脱臭機等設備的には充実している。洗車設備が少し古いので高圧洗浄付洗車機がどちらが片...」なんて声も上がっているみたいだぜ。（星4評価）  **高圧洗浄機完備**のセルフ洗車スペースがあるから、自分の手で納得いくまで綺麗にできるな。 **門型自動洗車機**があるから、手軽にサッと汚れを落としたい時にも便利だ。  しかも**24時間営業**！深夜のドライブついでや、早朝の空いている時間にゆっくり洗車できるのは最高だよな。  ちなみに、24時間営業。 という情報もあるみたいだ。  洗車ライフを楽しんでくれよな！,34.5240644,135.4984589,00000000,00000000,00000000,00000000,00000000,00000000,00000000
cde8ec9d-622f-4755-a638-0e7f047cb3ae,Whitepit 府中中須店,広島県府中市中須町81-3,不明,FALSE,TRUE,FALSE,FALSE,おっ、ここは府中市にある「Whitepit 府中中須店」だな！  利用者からは「心ゆくまで洗車ができるいい場所です。 扇風機もあり、冬は温水も出るそうなので一年中使えそうです。 要望ですが、飲料、洗車用品の自動販売機とかあればより良いなと思...」なんて声も上がっているみたいだぜ。（星5評価）  基本的な設備はしっかり揃っているみたいだぜ。  営業時間は不明だ。時間内に行ってくれよな！  ちなみに、時間制セルフ洗車 という情報もあるみたいだ。  近くに行ったら寄ってみてくれよな！,34.5545172,133.2670183,00000000,00000000,00000000,00000000,00000000,00000000,00000000
ce359e31-09e6-455d-aa1c-608be01ae1e4,洗車のジャバ 尼崎下坂部店,兵庫県尼崎市下坂部3-21,5:00 - 24:00,TRUE,TRUE,TRUE,FALSE,噂の洗車場、「洗車のジャバ 尼崎下坂部店」を紹介するぜ！場所は尼崎市だ。  利用者からは「水圧だけで洗車する洗車場が好きな自分にはいい感じ🌱ちょっと黄砂の影響か汚れが全部落ちきってなかったけどそれも仕方ない。 広くて使いやすく、スポンジとバケツも置...」なんて声も上がっているみたいだぜ。（星4評価）  なんと**ノンブラシ洗車機**があるんだ！ブラシ傷を気にせず、コーティング車も安心して洗えるぜ。 **高圧洗浄機完備**のセルフ洗車スペースがあるから、自分の手で納得いくまで綺麗にできるな。 掃除機もあるから、車内のゴミも一掃できるぞ。  営業時間は5:00 - 24:00だ。時間内に行ってくれよな！  ちなみに、ノーブラシ洗車機2台、スプレー2台。温水蛇口あり。 という情報もあるみたいだ。  週末の洗車はここに決まりだな！,34.7436492,135.4358311,05002359,05002359,05002359,05002359,05002359,05002359,05002359
d125a0a0-9ba7-49fd-9874-c82336581f94,洗車のジャバ 神戸西店,兵庫県神戸市西区玉津町新方462-1,5:00 - 24:00,TRUE,TRUE,TRUE,FALSE,おっ、ここは神戸市にある「洗車のジャバ 神戸西店」だな！  利用者からは「神戸西店は門型洗車機が4台もあって広くて使いやすく、設備面では文句なしです✨ 仕上がりも安定していてとても助かっています😊 ただ、濃い色の車や白系の車は水シミ...」なんて声も上がっているみたいだぜ。（星4評価）  なんと**ノンブラシ洗車機**があるんだ！ブラシ傷を気にせず、コーティング車も安心して洗えるぜ。 **高圧洗浄機完備**のセルフ洗車スペースがあるから、自分の手で納得いくまで綺麗にできるな。  営業時間は5:00 - 24:00だ。時間内に行ってくれよな！  ちなみに、広い敷地に門型4台。 という情報もあるみたいだ。  週末の洗車はここに決まりだな！,34.6617553,134.9889036,05002359,05002359,05002359,05002359,05002359,05002359,05002359
d2ddf11e-d269-425f-b492-5fc71b0e7790,ハナタカ,沖縄県中頭郡西原町（詳細要確認）,要確認,FALSE,TRUE,TRUE,FALSE,おっ、ここは中頭郡にある「ハナタカ」だな！  **高圧洗浄機完備**のセルフ洗車スペースがあるから、自分の手で納得いくまで綺麗にできるな。  営業時間は要確認だ。時間内に行ってくれよな！  ちなみに、2025年6月より純水セルフ洗車開始予定。 という情報もあるみたいだ。  愛車が綺麗になると気分も上がるよな！ぜひ行ってみてくれ！,26.2228349,127.7588392,セルフではない、削除で,セルフではない、削除で,セルフではない、削除で,セルフではない、削除で,セルフではない、削除で,セルフではない、削除で,セルフではない、削除で
d3c97855-ed68-42d4-a1b4-20ccdba404d0,カーピカランド レインボー 名古屋なかがわ店,愛知県名古屋市中川区小城町1-90,不明,FALSE,TRUE,FALSE,FALSE,愛車をピカピカにするなら、名古屋市の「カーピカランド レインボー 名古屋なかがわ店」はどうだ？  利用者からは「広めの洗車場です。拭きあげスペースもあるので洗車しやすいと思います。」なんて声も上がっているみたいだぜ。（星5評価）  **門型自動洗車機**があるから、手軽にサッと汚れを落としたい時にも便利だ。  営業時間は不明だ。時間内に行ってくれよな！  愛車が綺麗になると気分も上がるよな！ぜひ行ってみてくれ！,35.134739,136.8627473,04302300,04302300,04302300,04302300,04302300,04302300,04302300
d3e62d80-0ab3-4768-9698-9c465ad6903c,カーピカランド鹿浜,東京都足立区鹿浜6-11-8,不明,FALSE,TRUE,FALSE,FALSE,愛車をピカピカにするなら、足立区の「カーピカランド鹿浜」はどうだ？  利用者からは「24時間いつでも利用できるのがとても便利で、時間を気にせず洗車できるのがありがたいです。 水のホースの勢いもしっかり強く、汚れが落としやすい点も気に入っています...」なんて声も上がっているみたいだぜ。（星4評価）  **門型自動洗車機**があるから、手軽にサッと汚れを落としたい時にも便利だ。  営業時間は不明だ。時間内に行ってくれよな！  近くに行ったら寄ってみてくれよな！,35.7851923,139.7581984,00000000,00000000,00000000,00000000,00000000,00000000,00000000
d4697573-6de0-4b5f-b523-33026a308a0e,プライベート洗車Box 東灘店,兵庫県神戸市東灘区青木5丁目17-6,8:00 - 22:00,FALSE,TRUE,TRUE,FALSE,噂の洗車場、「プライベート洗車Box 東灘店」を紹介するぜ！場所は神戸市だ。  利用者からは「初めて、個室洗車場を利用しました。なかなか、こんな冷暖房完備、トイレ完備の洗車場はありません。ただ、高さが2M制限があり、SUVならリアゲート内の水の拭取りに　...」なんて声も上がっているみたいだぜ。（星4評価）  **高圧洗浄機完備**のセルフ洗車スペースがあるから、自分の手で納得いくまで綺麗にできるな。 掃除機もあるから、車内のゴミも一掃できるぞ。  営業時間は8:00 - 22:00だ。時間内に行ってくれよな！  ちなみに、完全個室予約制。 という情報もあるみたいだ。  週末の洗車はここに決まりだな！,34.7188566,135.2837881,08002200,08002200,08002200,08002200,08002200,08002200,08002200
d95981cf-4cd0-40ef-8755-d2998fe7ee83,カーピカランド入場,〒455-0801 愛知県名古屋市港区小碓２丁目１５９,不明,FALSE,TRUE,TRUE,FALSE,おっ、ここは名古屋市にある「カーピカランド ドンコ」だな！  利用者からは「0時まで比較的遅くまでやってるのが助かります 洗車ガンの時間設定が他より合理的で　基本600円のロングでことが足りる ただ　マット洗い機が置いてない  PROS...」なんて声も上がっているみたいだぜ。（星4評価）  **高圧洗浄機完備**のセルフ洗車スペースがあるから、自分の手で納得いくまで綺麗にできるな。  営業時間は不明だ。時間内に行ってくれよな！  ちなみに、全国リサーチ追加 (首都圏・東海編) という情報もあるみたいだ。  愛車が綺麗になると気分も上がるよな！ぜひ行ってみてくれ！,35.093996,136.8470409,06002359,06002359,06002359,06002359,06002359,06002359,06002359
da24e683-23fe-4bab-82cd-8a5cf2bec4c8,洗車天国,福島県郡山市安積町荒井大久保9,不明,TRUE,TRUE,FALSE,FALSE,おっ、ここは郡山市にある「洗車天国」だな！  利用者からは「洗車機がリニューアルされて使いやすくなりました。 市内では貴重なブラシレス洗車機は高圧水と洗剤で汚れを落とし コーティング仕上げもできます。 やはり頑固な汚れは...」なんて声も上がっているみたいだぜ。（星5評価）  なんと**ノンブラシ洗車機**があるんだ！ブラシ傷を気にせず、コーティング車も安心して洗えるぜ。  営業時間は不明だ。時間内に行ってくれよな！  ちなみに、ノンブラシ洗車機あり。 という情報もあるみたいだ。  近くに行ったら寄ってみてくれよな！,37.4004776,140.3596822,08301700,08301700,08301700,08301700,08301700,08301630,定休日
dc7e21fd-fcb9-438c-aca2-30eed5c1fff7,ワニの洗車場,東京都板橋区四葉2-2-1,8:00 - 21:00,TRUE,TRUE,TRUE,FALSE,おっ、ここは板橋区にある「ワニの洗車場」だな！  なんと**ノンブラシ洗車機**があるんだ！ブラシ傷を気にせず、コーティング車も安心して洗えるぜ。 **高圧洗浄機完備**のセルフ洗車スペースがあるから、自分の手で納得いくまで綺麗にできるな。  営業時間は8:00 - 21:00だ。時間内に行ってくれよな！  ちなみに、ノンブラシ洗車機あり。高級車に人気。 という情報もあるみたいだ。  近くに行ったら寄ってみてくれよな！,35.7882421,139.6858132,08002100,08002100,08002100,08002100,08002100,08002100,08002100
df029761-cd80-4bea-8611-1a50cbf82054,P's GARAGE（ピースガレージ）,千葉県松戸市（詳細要確認）,完全予約制,FALSE,TRUE,TRUE,FALSE,おっ、ここは松戸市にある「P's GARAGE（ピースガレージ）」だな！  利用者からは「妻用のセカンドカーを納車して、早速3ph洗車&極艶セラミックを施工していただきました。  今までも愛車を引き取りに行くたび、仕上がりに感動していたのですが、2台...」なんて声も上がっているみたいだぜ。（星5評価）  **高圧洗浄機完備**のセルフ洗車スペースがあるから、自分の手で納得いくまで綺麗にできるな。  営業時間は完全予約制だ。時間内に行ってくれよな！  ちなみに、2024年OPEN。屋内・冷暖房・純水完備のレンタルブース。 という情報もあるみたいだ。  週末の洗車はここに決まりだな！,35.7876663,139.9033248,セルフではない、削除で,セルフではない、削除で,セルフではない、削除で,セルフではない、削除で,セルフではない、削除で,セルフではない、削除で,セルフではない、削除で
df3b678e-275f-4881-b52c-4de71c8d710e,SAP Car Wash 福知山,京都府福知山市土師宮町2丁目96,6:00 - 22:00,TRUE,TRUE,FALSE,FALSE,噂の洗車場、「SAP Car Wash 福知山」を紹介するぜ！場所は府福知山市だ。  利用者からは「軽い汚れなら綺麗になる。拭き上げは必須だな」なんて声も上がっているみたいだぜ。（星4評価）  なんと**ノンブラシ洗車機**があるんだ！ブラシ傷を気にせず、コーティング車も安心して洗えるぜ。  営業時間は6:00 - 22:00だ。時間内に行ってくれよな！  ちなみに、2023年オープン。福知山初のノンブラシ洗車機。 という情報もあるみたいだ。  愛車が綺麗になると気分も上がるよな！ぜひ行ってみてくれ！,35.2934612,135.1459453,07002300,07002300,07002300,07002300,07002300,07002300,07002300
dfc03e69-b57c-4d53-a421-33f2b5bbe482,ニシキタ洗車場,兵庫県西宮市両度町1-20,6:00 - 22:00,TRUE,TRUE,TRUE,FALSE,噂の洗車場、「ニシキタ洗車場」を紹介するぜ！場所は西宮市だ。  利用者からは「新車を購入して傷を付けたくなかったのでノーブラシ洗車を初めて利用しました。 いつも使っている洗車機はゲートがあり、お金を投入して準備ができたらゲートが開く方式で...」なんて声も上がっているみたいだぜ。（星4評価）  なんと**ノンブラシ洗車機**があるんだ！ブラシ傷を気にせず、コーティング車も安心して洗えるぜ。 **高圧洗浄機完備**のセルフ洗車スペースがあるから、自分の手で納得いくまで綺麗にできるな。 掃除機もあるから、車内のゴミも一掃できるぞ。  営業時間は6:00 - 22:00だ。時間内に行ってくれよな！  ちなみに、ノーブラシ洗車機あり。西宮北口近く。 という情報もあるみたいだ。  愛車が綺麗になると気分も上がるよな！ぜひ行ってみてくれ！,34.7424955,135.3529994,06002200,06002200,06002200,06002200,06002200,06002200,06002200
e24f3685-36d7-4bb9-b4f4-16f780ea8bcd,SPLASH 'N' GO! 太田新田店,〒370-3014 群馬県太田市新田市野井町３−１,不明,FALSE,TRUE,FALSE,FALSE,愛車をピカピカにするなら、太田市の「SPLASH 'N' GO! 太田新田店」はどうだ？  利用者からは「よく利用させてもらっています。 洗車好きにはもってこいだと思います。 コースはありますが １ヶ月980円で洗いたい放題 タオルの貸し出しもあり 掃除機やタイヤワ...」なんて声も上がっているみたいだぜ。（星5評価）  基本的な設備はしっかり揃っているみたいだぜ。  営業時間は不明だ。時間内に行ってくれよな！  ちなみに、トンネル型連続洗車機 という情報もあるみたいだ。  愛車が綺麗になると気分も上がるよな！ぜひ行ってみてくれ！,36.2909373,139.3760432,09001900,09001900,09001900,09001900,09001900,09001900,09001900
e2abfbcc-d9d3-40a0-85c2-3d34bd6d11e1,洗神（アラジン）洗車場,愛知県額田郡幸田町坂崎祐金7-5,不明,TRUE,TRUE,FALSE,FALSE,おっ、ここは額田郡にある「洗神（アラジン）洗車場」だな！  利用者からは「朝から鳥の糞の直撃を受けて最悪な気分だったので、ネットで見つけたこちらの洗車場を訪問しました。 洗車機1台と拭き取りスペースがある小規模な洗車場です。 使い方は...」なんて声も上がっているみたいだぜ。（星5評価）  なんと**ノンブラシ洗車機**があるんだ！ブラシ傷を気にせず、コーティング車も安心して洗えるぜ。  営業時間は不明だ。時間内に行ってくれよな！  ちなみに、2024年2月オープン。ノーブラシ門型洗車機あり。 という情報もあるみたいだ。  洗車ライフを楽しんでくれよな！,34.8912826,137.1732311,07002200,07002200,07002200,07002200,07002200,07002200,07002200
e2acbda5-58e0-4e5d-ada6-64e17ea3703e,洗車のジャバ 京都吉祥院店,京都府京都市南区吉祥院石原京道町23-25,不明,TRUE,TRUE,FALSE,FALSE,噂の洗車場、「洗車のジャバ 京都吉祥院店」を紹介するぜ！場所は府京都市だ。  利用者からは「痛車にしてからノーブラシ洗車できる場所を探してたどり着いた場所。フルオプション付けても一般的なガソスタのフルオプションコースより1000円ぐらい安い上、オプショ...」なんて声も上がっているみたいだぜ。（星4評価）  なんと**ノンブラシ洗車機**があるんだ！ブラシ傷を気にせず、コーティング車も安心して洗えるぜ。  営業時間は不明だ。時間内に行ってくれよな！  愛車が綺麗になると気分も上がるよな！ぜひ行ってみてくれ！,34.9657468,135.7293304,00000000,00000000,00000000,00000000,00000000,00000000,00000000
e5680b54-e978-4692-acb8-b2360156e1ab,トミーロール,千葉県富里市七栄696,不明,TRUE,TRUE,FALSE,FALSE,愛車をピカピカにするなら、富里市の「トミーロール」はどうだ？  利用者からは「ブラシレスの洗車機は初めて使ったが、普通のブラシでは洗い難いバイザーの内側、ガラスモール、ドアミラーの付け根が綺麗になっていて驚いた。 高圧水での洗浄になるので...」なんて声も上がっているみたいだぜ。（星4評価）  なんと**ノンブラシ洗車機**があるんだ！ブラシ傷を気にせず、コーティング車も安心して洗えるぜ。  営業時間は不明だ。時間内に行ってくれよな！  ちなみに、水圧洗車（ノンブラシ）。 という情報もあるみたいだ。  近くに行ったら寄ってみてくれよな！,35.737593,140.3209062,05002300,05002300,05002300,05002300,05002300,05002300,05002300
e7938cf1-a15a-4477-ac16-fb1b19763f8f,洗車のジャバ 大和川店,大阪府大阪市平野区瓜破1-7-16,不明,FALSE,TRUE,TRUE,FALSE,おっ、ここは大阪市にある「洗車のジャバ 大和川店」だな！  **高圧洗浄機完備**のセルフ洗車スペースがあるから、自分の手で納得いくまで綺麗にできるな。 **門型自動洗車機**があるから、手軽にサッと汚れを落としたい時にも便利だ。  営業時間は不明だ。時間内に行ってくれよな！  ちなみに、門型2台、スプレー3台。 という情報もあるみたいだ。  愛車が綺麗になると気分も上がるよな！ぜひ行ってみてくれ！,34.60549,135.5517253,05002359,05002359,05002359,05002359,05002359,05002359,05002359
e79f14f4-7ffe-4dc8-b2d0-bdacb01986f3,洗車のジャバ 国分寺戸倉店,東京都国分寺市東戸倉2-36-8,不明,TRUE,TRUE,FALSE,FALSE,おっ、ここは国分寺市にある「洗車のジャバ 国分寺戸倉店」だな！  利用者からは「洗車機自体が紙幣に対応しておらず、小銭に両替しようとも店内にある両替機が壊れていたため、外の自販機で缶コーヒーを買う羽目になりましたが・・・  寒い時期だと水が...」なんて声も上がっているみたいだぜ。（星4評価）  なんと**ノンブラシ洗車機**があるんだ！ブラシ傷を気にせず、コーティング車も安心して洗えるぜ。  営業時間は不明だ。時間内に行ってくれよな！  洗車ライフを楽しんでくれよな！,35.7164114,139.4643102,06002200,06002200,06002200,06002200,06002200,06002200,06002200
e8e274b3-ee9e-486c-bc8e-fe1ff5029871,コインプラザフレッシュ,〒253-0064 神奈川県茅ヶ崎市柳島１丁目９−３５,不明,FALSE,TRUE,TRUE,FALSE,愛車をピカピカにするなら、茅ヶ崎市の「コインプラザフレッシュ」はどうだ？  利用者からは「小さな洗車場ですが、地元ではそれなりに賑わいを見せており、休日は洗車待ちの車も出ます。6月に洗車機が新しくなりました。カード販売機が廃止され、コインのみの対応に...」なんて声も上がっているみたいだぜ。（星4評価）  **高圧洗浄機完備**のセルフ洗車スペースがあるから、自分の手で納得いくまで綺麗にできるな。  営業時間は不明だ。時間内に行ってくれよな！  ちなみに、全国リサーチ追加 (首都圏・東海編) という情報もあるみたいだ。  近くに行ったら寄ってみてくれよな！,35.3338221,139.4036897,06002300,06002300,06002300,06002300,06002300,06002300,06002300
e9199acd-0d01-4b48-8bea-444e95e1d3b5,クリーンプラザ堀兼 BIGTOP,〒350-1312 埼玉県狭山市堀兼２６９,不明,FALSE,TRUE,TRUE,FALSE,噂の洗車場、「クリーンプラザ堀兼 BIGTOP」を紹介するぜ！場所は狭山市だ。  利用者からは「夏場は朝6:00~ 冬場は朝9:00~ ジェッター使用可能開始時間です。 洗車機2台と手洗いジェッター5ヶ所 拭き上げ場所も広く、使い易いです！ 目の前にファミ...」なんて声も上がっているみたいだぜ。（星4評価）  **高圧洗浄機完備**のセルフ洗車スペースがあるから、自分の手で納得いくまで綺麗にできるな。  営業時間は不明だ。時間内に行ってくれよな！  ちなみに、全国リサーチ追加 (首都圏・東海編) という情報もあるみたいだ。  近くに行ったら寄ってみてくれよな！,35.8528389,139.412183,07002300,07002300,07002300,07002300,07002300,07002300,07002300
e99dba25-f1af-400d-b708-eac0fe8cb7f5,洗車のジャバ 京都吉祥院店,京都府京都市南区吉祥院石原京道町23-25,5:00 - 24:00,TRUE,TRUE,TRUE,FALSE,おっ、ここは府京都市にある「洗車のジャバ 京都吉祥院店」だな！  なんと**ノンブラシ洗車機**があるんだ！ブラシ傷を気にせず、コーティング車も安心して洗えるぜ。 **高圧洗浄機完備**のセルフ洗車スペースがあるから、自分の手で納得いくまで綺麗にできるな。 掃除機もあるから、車内のゴミも一掃できるぞ。  営業時間は5:00 - 24:00だ。時間内に行ってくれよな！  ちなみに、全自動ノーブラシ洗車機3台。 という情報もあるみたいだ。  週末の洗車はここに決まりだな！,34.9648851,135.707128,00000000,00000000,00000000,00000000,00000000,00000000,00000000
ea1eb337-e0f3-4754-b189-8ed744f45b7d,カーピカランド高槻土室,大阪府高槻市土室町40,不明,FALSE,TRUE,FALSE,FALSE,噂の洗車場、「カーピカランド高槻土室」を紹介するぜ！場所は高槻市だ。  利用者からは「週末に訪問しました。ゲート型の洗車機が2台設置されてます。値段もリーズナブル。周りは静かな田園ですので落ち着いて拭き上げ作業ができます。飲み物の自販機。洗車グッ...」なんて声も上がっているみたいだぜ。（星5評価）  **門型自動洗車機**があるから、手軽にサッと汚れを落としたい時にも便利だ。  営業時間は不明だ。時間内に行ってくれよな！  週末の洗車はここに決まりだな！,34.8471745,135.5836657,06002300,06002300,06002300,06002300,06002300,06002300,06002300
ea892c0e-4bba-4d6b-9ccc-69ca193e4645,コイン洗車場きのめ,〒350-0016 埼玉県川越市木野目１５９０−１,不明,TRUE,TRUE,FALSE,FALSE,おっ、ここは川越市にある「コイン洗車場きのめ」だな！  利用者からは「なかなかの穴場かと思います。  ・敷地が広い(洗車スペースも3ナンバー車が楽々入る広さ) ・吊り下げ式のガン ・無料で使える蛇口 ・両替機(釣銭切れとか無いとい...」なんて声も上がっているみたいだぜ。（星5評価）  なんと**ノンブラシ洗車機**があるんだ！ブラシ傷を気にせず、コーティング車も安心して洗えるぜ。  営業時間は不明だ。時間内に行ってくれよな！  ちなみに、ノンブラシ洗車機あり。水道無料。 という情報もあるみたいだ。  愛車が綺麗になると気分も上がるよな！ぜひ行ってみてくれ！,35.8956944,139.516546,00000000,00000000,00000000,00000000,00000000,00000000,00000000
eb4e3301-bff2-4139-8492-0273aaf9004e,カーシャインプラザ 北千住,〒120-0024 東京都足立区千住関屋町５−１６,不明,FALSE,TRUE,TRUE,FALSE,噂の洗車場、「カーシャインプラザ 北千住」を紹介するぜ！場所は足立区だ。  利用者からは「間仕切りのある高圧洗浄機のスペースが４台分あり、それぞれふき取りスペースが１台ずつあります。高圧洗浄機でぶしゃーっとやった後は、真後ろのふき取りスペースにバック...」なんて声も上がっているみたいだぜ。（星4評価）  **高圧洗浄機完備**のセルフ洗車スペースがあるから、自分の手で納得いくまで綺麗にできるな。  営業時間は不明だ。時間内に行ってくれよな！  ちなみに、全国リサーチ追加 (首都圏・東海編) という情報もあるみたいだ。  洗車ライフを楽しんでくれよな！,35.7413624,139.8054747,07002300,07002300,07002300,07002300,07002300,07002300,07002300
eb5bdbd4-543b-4fba-aa0e-3a567540cad6,クリーンランド虹,愛知県名古屋市緑区,不明,FALSE,TRUE,TRUE,FALSE,おっ、ここは名古屋市にある「クリーンランド虹」だな！  利用者からは「今どき貴重な洗車場です。両替機がなく敷地内のジュース自販機も釣り銭切れになっていることがあるので小銭必須。手動の高圧洗車機は百円玉しか使えません。 写真に自動洗...」なんて声も上がっているみたいだぜ。（星4評価）  **高圧洗浄機完備**のセルフ洗車スペースがあるから、自分の手で納得いくまで綺麗にできるな。  営業時間は不明だ。時間内に行ってくれよな！  ちなみに、全国リサーチ追加 (首都圏・東海編) という情報もあるみたいだ。  洗車ライフを楽しんでくれよな！,35.0817593,136.9600742,閉業,閉業,閉業,閉業,閉業,閉業,閉業
ee672619-6441-4579-938f-c4ea9275f310,Whitepit 松山余戸西店,〒790-0046 愛媛県松山市余戸西３丁目１,24時間,FALSE,TRUE,TRUE,FALSE,おっ、ここは松山市にある「Whitepit 松山余戸西店」だな！  利用者からは「水、掃除機、ブロワーが使い放題で満足するまで洗車できました。 以前のセルフ洗車場よりお高くなりますが設備の新しさや壁も高くなったし、雰囲気も明るくなったしじっく...」なんて声も上がっているみたいだぜ。（星5評価）  **高圧洗浄機完備**のセルフ洗車スペースがあるから、自分の手で納得いくまで綺麗にできるな。 掃除機もあるから、車内のゴミも一掃できるぞ。  しかも**24時間営業**！深夜のドライブついでや、早朝の空いている時間にゆっくり洗車できるのは最高だよな。  ちなみに、2025年オープンの時間制セルフ洗車場。設備充実。 という情報もあるみたいだ。  愛車が綺麗になると気分も上がるよな！ぜひ行ってみてくれ！,33.8154602,132.723494,00000000,00000000,00000000,00000000,00000000,00000000,00000000
ef12e725-3229-4a56-86b1-f4cc92da0b1b,eSPA仙台泉,宮城県仙台市泉区野村字野村95-2,不明,TRUE,TRUE,FALSE,FALSE,愛車をピカピカにするなら、仙台市の「eSPA仙台泉」はどうだ？  利用者からは「充実した設備と清潔感のある洗車場です。高圧ジェットの自動洗車機3台（ノンブラシ2、ソフトスポンジ1）と手持ちのスプレー洗車ブース2ヶ所、そして12台分の拭き上げ...」なんて声も上がっているみたいだぜ。（星5評価）  なんと**ノンブラシ洗車機**があるんだ！ブラシ傷を気にせず、コーティング車も安心して洗えるぜ。  営業時間は不明だ。時間内に行ってくれよな！  ちなみに、東北初ノンブラシ洗車機「嵐」2台設置。 という情報もあるみたいだ。  洗車ライフを楽しんでくれよな！,38.3353815,140.8397417,00000000,00000000,00000000,00000000,00000000,00000000,00000000
ef9efc8a-cb64-4d1a-9b38-0dafd7f5726c,カーピカランド大久保,埼玉県さいたま市桜区大久保領家626-2,不明,FALSE,TRUE,FALSE,FALSE,愛車をピカピカにするなら、さいたま市の「カーピカランド大久保」はどうだ？  利用者からは「ここはコインランドリーもあって、洗濯中に洗車もできて便利です。 おまけに精米もできます。」なんて声も上がっているみたいだぜ。（星4評価）  **門型自動洗車機**があるから、手軽にサッと汚れを落としたい時にも便利だ。  営業時間は不明だ。時間内に行ってくれよな！  近くに行ったら寄ってみてくれよな！,35.8713831,139.6016507,07002200,07002200,07002200,07002200,07002200,07002200,07002200
f0016393-f09f-49d8-a42b-4742c4d3ca69,アイウォッシュパーク湘南台,〒252-0804 神奈川県藤沢市湘南台,不明,FALSE,TRUE,TRUE,FALSE,おっ、ここは藤沢市にある「アイウォッシュパーク湘南台」だな！  **高圧洗浄機完備**のセルフ洗車スペースがあるから、自分の手で納得いくまで綺麗にできるな。  営業時間は不明だ。時間内に行ってくれよな！  ちなみに、全国リサーチ追加 (首都圏・東海編) という情報もあるみたいだ。  週末の洗車はここに決まりだな！,35.399044,139.4694825,閉業,閉業,閉業,閉業,閉業,閉業,閉業
f00f8b0f-e7eb-44ce-84d6-d7b57b9c288d,東戸塚カーウォッシュセンター,神奈川県横浜市戸塚区名瀬町97,6:30 - 21:00,TRUE,TRUE,TRUE,FALSE,噂の洗車場、「東戸塚カーウォッシュセンター」を紹介するぜ！場所は横浜市だ。  利用者からは「2025/08の土曜訪問 朝7時〜営業 7:20くらいにはセルフ洗車エリアは満杯 1000円札両替機あり 水は10円でかなりの量でました 静かな環境でマナーの悪...」なんて声も上がっているみたいだぜ。（星4評価）  なんと**ノンブラシ洗車機**があるんだ！ブラシ傷を気にせず、コーティング車も安心して洗えるぜ。 **高圧洗浄機完備**のセルフ洗車スペースがあるから、自分の手で納得いくまで綺麗にできるな。  営業時間は6:30 - 21:00だ。時間内に行ってくれよな！  ちなみに、ノンブラシ洗車機1台あり。 という情報もあるみたいだ。  近くに行ったら寄ってみてくれよな！,35.4349137,139.5356365,07002200,07002200,07002200,07002200,07002200,07002200,07002200
f33879fe-76ef-4409-a48f-ef167033cdd7,のんびりパーク,岐阜県郡上市八幡町初納1430-2,不明,FALSE,TRUE,TRUE,FALSE,噂の洗車場、「のんびりパーク」を紹介するぜ！場所は郡上市だ。  利用者からは「チェックインは、軽トラキャンのハッピーワンでしてくださいます  受付対応してくれたスタッフさんがとても丁寧でお話しも楽しかったです LINE予約で、予約確認や連...」なんて声も上がっているみたいだぜ。（星5評価）  **高圧洗浄機完備**のセルフ洗車スペースがあるから、自分の手で納得いくまで綺麗にできるな。  営業時間は不明だ。時間内に行ってくれよな！  ちなみに、100%純水使用の高圧スプレー洗車。 という情報もあるみたいだ。  洗車ライフを楽しんでくれよな！,35.7874197,137.0086239,07001900,07001900,07001900,07001900,07001900,07001900,07001900
f34adecf-e46d-4a2b-9d42-ff0f8af979ba,カーピカランド豊里,大阪府大阪市東淀川区大道南1-3,不明,FALSE,TRUE,TRUE,FALSE,愛車をピカピカにするなら、大阪市の「カーピカランド豊里」はどうだ？  **高圧洗浄機完備**のセルフ洗車スペースがあるから、自分の手で納得いくまで綺麗にできるな。  営業時間は不明だ。時間内に行ってくれよな！  ちなみに、全国リサーチ追加 (大阪編) という情報もあるみたいだ。  近くに行ったら寄ってみてくれよな！,34.7398739,135.5495201,138b7de1-cb95-4698-9785-e5232383ebcdと重複、こちらを削除,138b7de1-cb95-4698-9785-e5232383ebcdと重複、こちらを削除,138b7de1-cb95-4698-9785-e5232383ebcdと重複、こちらを削除,138b7de1-cb95-4698-9785-e5232383ebcdと重複、こちらを削除,138b7de1-cb95-4698-9785-e5232383ebcdと重複、こちらを削除,138b7de1-cb95-4698-9785-e5232383ebcdと重複、こちらを削除,138b7de1-cb95-4698-9785-e5232383ebcdと重複、こちらを削除
f401bd9c-362d-4ab3-aad1-1ec09ac9802c,洗車のジャバ 四條畷外環店,大阪府四條畷市砂4-216,不明,TRUE,TRUE,FALSE,FALSE,おっ、ここは四條畷市にある「洗車のジャバ 四條畷外環店」だな！  なんと**ノンブラシ洗車機**があるんだ！ブラシ傷を気にせず、コーティング車も安心して洗えるぜ。  営業時間は不明だ。時間内に行ってくれよな！  週末の洗車はここに決まりだな！,34.7464515,135.6308316,05000100,05000100,05000100,05000100,05000100,05000100,05000100
f464fc63-9ad8-455f-b118-d7bc140e022d,カーピカランド高石,大阪府高石市取下町6-16-23,不明,FALSE,TRUE,FALSE,FALSE,愛車をピカピカにするなら、高石市の「カーピカランド高石」はどうだ？  利用者からは「洗車は水洗いだと400円で長い間洗えるから、水圧も高いし、ピカピカになりました。車内清掃の掃除機は100円で５分使えるので、きれいになりました。 お湯は100円...」なんて声も上がっているみたいだぜ。（星4評価）  **門型自動洗車機**があるから、手軽にサッと汚れを落としたい時にも便利だ。  営業時間は不明だ。時間内に行ってくれよな！  週末の洗車はここに決まりだな！,34.5207035,135.4424491,06002200,06002200,06002200,06002200,06002200,06002200,06002200
f5a33db9-fa14-4352-a5df-7a774c5f5f95,洗車のジャバ 木更津朝日店,千葉県木更津市朝日3-1-31,5:00 - 24:00,TRUE,TRUE,FALSE,FALSE,噂の洗車場、「洗車のジャバ 木更津朝日店」を紹介するぜ！場所は木更津市だ。  利用者からは「貴重なコイン洗車場、料金は最低で700円。少し高いと感じるが場所があるだけマシですね。バケツに汲む水は10円です。拭き取り場もそれなりに広く至って普通の洗車場。...」なんて声も上がっているみたいだぜ。（星4評価）  なんと**ノンブラシ洗車機**があるんだ！ブラシ傷を気にせず、コーティング車も安心して洗えるぜ。  営業時間は5:00 - 24:00だ。時間内に行ってくれよな！  ちなみに、ノーブラシ洗車機1台。 という情報もあるみたいだ。  近くに行ったら寄ってみてくれよな！,35.3838507,139.9345953,06002200,06002200,06002200,06002200,06002200,06002200,06002200
f678ee2f-d5aa-4e4f-b1a5-ef12dd29127b,洗車のジャバ 京都南インター店,京都府京都市伏見区竹田西内畑町15,5:00 - 24:00,TRUE,TRUE,TRUE,FALSE,愛車をピカピカにするなら、府京都市の「洗車のジャバ 京都南インター店」はどうだ？  なんと**ノンブラシ洗車機**があるんだ！ブラシ傷を気にせず、コーティング車も安心して洗えるぜ。 **高圧洗浄機完備**のセルフ洗車スペースがあるから、自分の手で納得いくまで綺麗にできるな。 掃除機もあるから、車内のゴミも一掃できるぞ。  営業時間は5:00 - 24:00だ。時間内に行ってくれよな！  ちなみに、全自動ノーブラシ洗車機3台。 という情報もあるみたいだ。  近くに行ったら寄ってみてくれよな！,34.9474403,135.7467681,00000000,00000000,00000000,00000000,00000000,00000000,00000000
f74a7081-b490-47cc-8cf6-d0efd5f07315,アクアランド 足立花畑店,〒121-0061 東京都足立区花畑２丁目１−２９,不明,FALSE,TRUE,TRUE,FALSE,噂の洗車場、「アクアランド 足立花畑店」を紹介するぜ！場所は足立区だ。  利用者からは「ランクルの洗車て水洗い５分500円を2回と、シャンプー洗車700円を1回、温水１回（備え付けポリタン2杯弱）100円を利用。  シャーシ周りの泥は川で落としてか...」なんて声も上がっているみたいだぜ。（星5評価）  **高圧洗浄機完備**のセルフ洗車スペースがあるから、自分の手で納得いくまで綺麗にできるな。  営業時間は不明だ。時間内に行ってくれよな！  ちなみに、全国リサーチ追加 (首都圏・東海編) という情報もあるみたいだ。  愛車が綺麗になると気分も上がるよな！ぜひ行ってみてくれ！,35.8047937,139.816345,07002000,07002000,07002000,07002000,07002000,07002000,07002000
f754a4bd-f807-4ec6-9cc5-1c54ad7ac237,洗車のジャバ 京都南インター店,京都府京都市伏見区竹田西内畑町15,不明,TRUE,TRUE,FALSE,FALSE,おっ、ここは府京都市にある「洗車のジャバ 京都南インター店」だな！  利用者からは「水垢と高速道路を走ったことによる虫の死骸が気になり利用しました。 名神 京都南ICを降りてすぐの場所にあり、24時間営業なので助かります。 10:00-17:0...」なんて声も上がっているみたいだぜ。（星5評価）  なんと**ノンブラシ洗車機**があるんだ！ブラシ傷を気にせず、コーティング車も安心して洗えるぜ。  営業時間は不明だ。時間内に行ってくれよな！  愛車が綺麗になると気分も上がるよな！ぜひ行ってみてくれ！,34.9540542,135.7515062,00000000,00000000,00000000,00000000,00000000,00000000,00000000
f8ac55e2-db40-4c58-ab90-c80eedeb6e91,カーピカランド桔梗,〒182-0022 東京都調布市国領町６丁目３２−１,不明,FALSE,TRUE,TRUE,FALSE,噂の洗車場、「カーピカランド桔梗」を紹介するぜ！場所は調布市だ。  **高圧洗浄機完備**のセルフ洗車スペースがあるから、自分の手で納得いくまで綺麗にできるな。  営業時間は不明だ。時間内に行ってくれよな！  ちなみに、全国リサーチ追加 (首都圏・東海編) という情報もあるみたいだ。  週末の洗車はここに決まりだな！,35.6506111,139.5407215,06002200,06002200,06002200,06002200,06002200,06002200,06002200
f9967a68-5169-461d-b2d4-2f4046e8a2b7,カーピカランド中央,〒349-1134 埼玉県加須市北下新井６０９−２ ※付近,不明,FALSE,TRUE,TRUE,FALSE,愛車をピカピカにするなら、加須市の「カーピカランド中央」はどうだ？  利用者からは「24時間営業のコイン洗車場。 どこか懐かしさを覚える佇まい。  車愛好者 もしくは車複数台持ち 自宅に洗車スペースがない場合は かなり重宝します。  基本セルフ...」なんて声も上がっているみたいだぜ。（星5評価）  **高圧洗浄機完備**のセルフ洗車スペースがあるから、自分の手で納得いくまで綺麗にできるな。  営業時間は不明だ。時間内に行ってくれよな！  ちなみに、全国リサーチ追加 (首都圏・東海編) という情報もあるみたいだ。  愛車が綺麗になると気分も上がるよな！ぜひ行ってみてくれ！,36.1313882,139.6017706,営業時間不明,営業時間不明,営業時間不明,営業時間不明,営業時間不明,営業時間不明,営業時間不明
fb08f7b3-af8d-449c-9ff3-45ecca039908,SPLASH 'N' GO! 高崎棟高店,〒370-3521 群馬県高崎市棟高町２４０９−１,不明,FALSE,TRUE,FALSE,FALSE,おっ、ここは高崎市にある「SPLASH 'N' GO! 高崎棟高店」だな！  利用者からは「サブスクで通い放題、純水洗車で吹き上げ不要、各種オプション付き、流れ作業で待ち時間ほぼなしと私にとって理想の洗車場です。 都心に進出すれば流行ること間違いなしで...」なんて声も上がっているみたいだぜ。（星5評価）  基本的な設備はしっかり揃っているみたいだぜ。  営業時間は不明だ。時間内に行ってくれよな！  ちなみに、トンネル型連続洗車機 という情報もあるみたいだ。  近くに行ったら寄ってみてくれよな！,36.3885399,139.0034626,09001900,09001900,09001900,09001900,09001900,09001900,09001900
fcb64e6b-3801-4c87-a8da-6d067fa724c1,Whitepit 松原セブンパーク天美前店,大阪府松原市天美東2-208,不明,FALSE,TRUE,FALSE,FALSE,愛車をピカピカにするなら、松原市の「Whitepit 松原セブンパーク天美前店」はどうだ？  利用者からは「利用させて頂きました  装備が満載で使いやすかったです。  お伺いしたいのですが、屋根ありのブースが満車の時は、入れないってことでしょうか？↓  高圧洗車が空い...」なんて声も上がっているみたいだぜ。（星4評価）  基本的な設備はしっかり揃っているみたいだぜ。  営業時間は不明だ。時間内に行ってくれよな！  ちなみに、時間制セルフ洗車 という情報もあるみたいだ。  週末の洗車はここに決まりだな！,34.5898363,135.5429863,00000000,00000000,00000000,00000000,00000000,00000000,00000000
fd9c45b0-58cc-491e-a11c-69b0b44520f4,セルフ八田SS,〒400-0205 山梨県南アルプス市野牛島１８４５−９,不明,FALSE,TRUE,FALSE,FALSE,おっ、ここは南アルプス市にある「セルフ八田SS」だな！  利用者からは「いつも利用しております．どのスタッフさんも明るく，対応が迅速丁寧で気持ちいいです． かなり汚くなってしまったフロントガラスもとても綺麗に拭きあげてくれて，ありが...」なんて声も上がっているみたいだぜ。（星5評価）  **門型自動洗車機**があるから、手軽にサッと汚れを落としたい時にも便利だ。  営業時間は不明だ。時間内に行ってくれよな！  ちなみに、山梨県初、純水洗車機導入店。 という情報もあるみたいだ。  週末の洗車はここに決まりだな！,35.6082676,138.4648353,07302100,07302100,07302100,07302100,07302100,07302100,07302100
